{
"type": "FeatureCollection",
"name": "adj2024_pr_precincts",
"crs": { "type": "name", "properties": { "name": "urn:ogc:def:crs:OGC:1.3:CRS84" } },
"features": [
{ "type": "Feature", "properties": { "id": 79001, "district_en": "Batumi", "district_ka": "ბათუმი", "precinct": 1.0, "name_en": "Batumi - 1", "name_ka": "ბათუმი - 1" }, "geometry": { "type": "Point", "coordinates": [ 41.642507577484821, 41.649850706640471 ] } },
{ "type": "Feature", "properties": { "id": 79002, "district_en": "Batumi", "district_ka": "ბათუმი", "precinct": 2.0, "name_en": "Batumi - 2", "name_ka": "ბათუმი - 2" }, "geometry": { "type": "Point", "coordinates": [ 41.638257265081847, 41.650949145559757 ] } },
{ "type": "Feature", "properties": { "id": 79003, "district_en": "Batumi", "district_ka": "ბათუმი", "precinct": 3.0, "name_en": "Batumi - 3", "name_ka": "ბათუმი - 3" }, "geometry": { "type": "Point", "coordinates": [ 41.637620945368994, 41.647019299942713 ] } },
{ "type": "Feature", "properties": { "id": 79004, "district_en": "Batumi", "district_ka": "ბათუმი", "precinct": 4.0, "name_en": "Batumi - 4", "name_ka": "ბათუმი - 4" }, "geometry": { "type": "Point", "coordinates": [ 41.651821315127549, 41.64344099989178 ] } },
{ "type": "Feature", "properties": { "id": 79005, "district_en": "Batumi", "district_ka": "ბათუმი", "precinct": 5.0, "name_en": "Batumi - 5", "name_ka": "ბათუმი - 5" }, "geometry": { "type": "Point", "coordinates": [ 41.614139071258549, 41.636783072966693 ] } },
{ "type": "Feature", "properties": { "id": 79006, "district_en": "Batumi", "district_ka": "ბათუმი", "precinct": 6.0, "name_en": "Batumi - 6", "name_ka": "ბათუმი - 6" }, "geometry": { "type": "Point", "coordinates": [ 41.631323596572891, 41.646216046474478 ] } },
{ "type": "Feature", "properties": { "id": 79007, "district_en": "Batumi", "district_ka": "ბათუმი", "precinct": 7.0, "name_en": "Batumi - 7", "name_ka": "ბათუმი - 7" }, "geometry": { "type": "Point", "coordinates": [ 41.632905394442773, 41.648951381887805 ] } },
{ "type": "Feature", "properties": { "id": 79008, "district_en": "Batumi", "district_ka": "ბათუმი", "precinct": 8.0, "name_en": "Batumi - 8", "name_ka": "ბათუმი - 8" }, "geometry": { "type": "Point", "coordinates": [ 41.633342309262062, 41.647851409518836 ] } },
{ "type": "Feature", "properties": { "id": 79009, "district_en": "Batumi", "district_ka": "ბათუმი", "precinct": 9.0, "name_en": "Batumi - 9", "name_ka": "ბათუმი - 9" }, "geometry": { "type": "Point", "coordinates": [ 41.627693013877888, 41.64419469677874 ] } },
{ "type": "Feature", "properties": { "id": 79010, "district_en": "Batumi", "district_ka": "ბათუმი", "precinct": 10.0, "name_en": "Batumi - 10", "name_ka": "ბათუმი - 10" }, "geometry": { "type": "Point", "coordinates": [ 41.627693013877888, 41.64419469677874 ] } },
{ "type": "Feature", "properties": { "id": 79011, "district_en": "Batumi", "district_ka": "ბათუმი", "precinct": 11.0, "name_en": "Batumi - 11", "name_ka": "ბათუმი - 11" }, "geometry": { "type": "Point", "coordinates": [ 41.620790503041007, 41.642327112936457 ] } },
{ "type": "Feature", "properties": { "id": 79012, "district_en": "Batumi", "district_ka": "ბათუმი", "precinct": 12.0, "name_en": "Batumi - 12", "name_ka": "ბათუმი - 12" }, "geometry": { "type": "Point", "coordinates": [ 41.624308635581997, 41.641980331884824 ] } },
{ "type": "Feature", "properties": { "id": 79013, "district_en": "Batumi", "district_ka": "ბათუმი", "precinct": 13.0, "name_en": "Batumi - 13", "name_ka": "ბათუმი - 13" }, "geometry": { "type": "Point", "coordinates": [ 41.630708380009423, 41.646316125899503 ] } },
{ "type": "Feature", "properties": { "id": 79014, "district_en": "Batumi", "district_ka": "ბათუმი", "precinct": 14.0, "name_en": "Batumi - 14", "name_ka": "ბათუმი - 14" }, "geometry": { "type": "Point", "coordinates": [ 41.623658672352597, 41.645863571399424 ] } },
{ "type": "Feature", "properties": { "id": 79015, "district_en": "Batumi", "district_ka": "ბათუმი", "precinct": 15.0, "name_en": "Batumi - 15", "name_ka": "ბათუმი - 15" }, "geometry": { "type": "Point", "coordinates": [ 41.616757858860758, 41.640435358672242 ] } },
{ "type": "Feature", "properties": { "id": 79016, "district_en": "Batumi", "district_ka": "ბათუმი", "precinct": 16.0, "name_en": "Batumi - 16", "name_ka": "ბათუმი - 16" }, "geometry": { "type": "Point", "coordinates": [ 41.607552481956496, 41.632253686574465 ] } },
{ "type": "Feature", "properties": { "id": 79017, "district_en": "Batumi", "district_ka": "ბათუმი", "precinct": 17.0, "name_en": "Batumi - 17", "name_ka": "ბათუმი - 17" }, "geometry": { "type": "Point", "coordinates": [ 41.604447465120771, 41.631772728032921 ] } },
{ "type": "Feature", "properties": { "id": 79018, "district_en": "Batumi", "district_ka": "ბათუმი", "precinct": 18.0, "name_en": "Batumi - 18", "name_ka": "ბათუმი - 18" }, "geometry": { "type": "Point", "coordinates": [ 41.624157933204629, 41.642297513880976 ] } },
{ "type": "Feature", "properties": { "id": 79019, "district_en": "Batumi", "district_ka": "ბათუმი", "precinct": 19.0, "name_en": "Batumi - 19", "name_ka": "ბათუმი - 19" }, "geometry": { "type": "Point", "coordinates": [ 41.613575200000014, 41.6320079 ] } },
{ "type": "Feature", "properties": { "id": 79020, "district_en": "Batumi", "district_ka": "ბათუმი", "precinct": 20.0, "name_en": "Batumi - 20", "name_ka": "ბათუმი - 20" }, "geometry": { "type": "Point", "coordinates": [ 41.621018193362488, 41.625259082634514 ] } },
{ "type": "Feature", "properties": { "id": 79021, "district_en": "Batumi", "district_ka": "ბათუმი", "precinct": 21.0, "name_en": "Batumi - 21", "name_ka": "ბათუმი - 21" }, "geometry": { "type": "Point", "coordinates": [ 41.621070179098524, 41.625559026462852 ] } },
{ "type": "Feature", "properties": { "id": 79022, "district_en": "Batumi", "district_ka": "ბათუმი", "precinct": 22.0, "name_en": "Batumi - 22", "name_ka": "ბათუმი - 22" }, "geometry": { "type": "Point", "coordinates": [ 41.620946986508216, 41.626267288825055 ] } },
{ "type": "Feature", "properties": { "id": 79023, "district_en": "Batumi", "district_ka": "ბათუმი", "precinct": 23.0, "name_en": "Batumi - 23", "name_ka": "ბათუმი - 23" }, "geometry": { "type": "Point", "coordinates": [ 41.615653978295882, 41.628718302669775 ] } },
{ "type": "Feature", "properties": { "id": 79024, "district_en": "Batumi", "district_ka": "ბათუმი", "precinct": 24.0, "name_en": "Batumi - 24", "name_ka": "ბათუმი - 24" }, "geometry": { "type": "Point", "coordinates": [ 41.62786936085206, 41.631900235550567 ] } },
{ "type": "Feature", "properties": { "id": 79025, "district_en": "Batumi", "district_ka": "ბათუმი", "precinct": 25.0, "name_en": "Batumi - 25", "name_ka": "ბათუმი - 25" }, "geometry": { "type": "Point", "coordinates": [ 41.630717566409317, 41.632963334333922 ] } },
{ "type": "Feature", "properties": { "id": 79026, "district_en": "Batumi", "district_ka": "ბათუმი", "precinct": 26.0, "name_en": "Batumi - 26", "name_ka": "ბათუმი - 26" }, "geometry": { "type": "Point", "coordinates": [ 41.637998599475182, 41.635643248594391 ] } },
{ "type": "Feature", "properties": { "id": 79027, "district_en": "Batumi", "district_ka": "ბათუმი", "precinct": 27.0, "name_en": "Batumi - 27", "name_ka": "ბათუმი - 27" }, "geometry": { "type": "Point", "coordinates": [ 41.645920039733937, 41.634867608363564 ] } },
{ "type": "Feature", "properties": { "id": 79028, "district_en": "Batumi", "district_ka": "ბათუმი", "precinct": 28.0, "name_en": "Batumi - 28", "name_ka": "ბათუმი - 28" }, "geometry": { "type": "Point", "coordinates": [ 41.626082799999949, 41.6343337 ] } },
{ "type": "Feature", "properties": { "id": 79029, "district_en": "Batumi", "district_ka": "ბათუმი", "precinct": 29.0, "name_en": "Batumi - 29", "name_ka": "ბათუმი - 29" }, "geometry": { "type": "Point", "coordinates": [ 41.633800458544101, 41.64323331599288 ] } },
{ "type": "Feature", "properties": { "id": 79030, "district_en": "Batumi", "district_ka": "ბათუმი", "precinct": 30.0, "name_en": "Batumi - 30", "name_ka": "ბათუმი - 30" }, "geometry": { "type": "Point", "coordinates": [ 41.62364, 41.64052 ] } },
{ "type": "Feature", "properties": { "id": 79031, "district_en": "Batumi", "district_ka": "ბათუმი", "precinct": 31.0, "name_en": "Batumi - 31", "name_ka": "ბათუმი - 31" }, "geometry": { "type": "Point", "coordinates": [ 41.615910704893508, 41.635094284535803 ] } },
{ "type": "Feature", "properties": { "id": 79032, "district_en": "Batumi", "district_ka": "ბათუმი", "precinct": 32.0, "name_en": "Batumi - 32", "name_ka": "ბათუმი - 32" }, "geometry": { "type": "Point", "coordinates": [ 41.627373499999976, 41.6336834 ] } },
{ "type": "Feature", "properties": { "id": 79033, "district_en": "Batumi", "district_ka": "ბათუმი", "precinct": 33.0, "name_en": "Batumi - 33", "name_ka": "ბათუმი - 33" }, "geometry": { "type": "Point", "coordinates": [ 41.646799073124726, 41.641112599634653 ] } },
{ "type": "Feature", "properties": { "id": 79034, "district_en": "Batumi", "district_ka": "ბათუმი", "precinct": 34.0, "name_en": "Batumi - 34", "name_ka": "ბათუმი - 34" }, "geometry": { "type": "Point", "coordinates": [ 41.611895263195038, 41.637366232848407 ] } },
{ "type": "Feature", "properties": { "id": 79035, "district_en": "Batumi", "district_ka": "ბათუმი", "precinct": 35.0, "name_en": "Batumi - 35", "name_ka": "ბათუმი - 35" }, "geometry": { "type": "Point", "coordinates": [ 41.635257070500188, 41.641944784410207 ] } },
{ "type": "Feature", "properties": { "id": 79036, "district_en": "Batumi", "district_ka": "ბათუმი", "precinct": 36.0, "name_en": "Batumi - 36", "name_ka": "ბათუმი - 36" }, "geometry": { "type": "Point", "coordinates": [ 41.646793708706689, 41.641124626468276 ] } },
{ "type": "Feature", "properties": { "id": 79037, "district_en": "Batumi", "district_ka": "ბათუმი", "precinct": 37.0, "name_en": "Batumi - 37", "name_ka": "ბათუმი - 37" }, "geometry": { "type": "Point", "coordinates": [ 41.663880275146532, 41.64042492134255 ] } },
{ "type": "Feature", "properties": { "id": 79038, "district_en": "Batumi", "district_ka": "ბათუმი", "precinct": 38.0, "name_en": "Batumi - 38", "name_ka": "ბათუმი - 38" }, "geometry": { "type": "Point", "coordinates": [ 41.619168644180263, 41.625421690079186 ] } },
{ "type": "Feature", "properties": { "id": 79039, "district_en": "Batumi", "district_ka": "ბათუმი", "precinct": 39.0, "name_en": "Batumi - 39", "name_ka": "ბათუმი - 39" }, "geometry": { "type": "Point", "coordinates": [ 41.651844288954869, 41.643504939584908 ] } },
{ "type": "Feature", "properties": { "id": 79040, "district_en": "Batumi", "district_ka": "ბათუმი", "precinct": 40.0, "name_en": "Batumi - 40", "name_ka": "ბათუმი - 40" }, "geometry": { "type": "Point", "coordinates": [ 41.676421165466309, 41.639084142714026 ] } },
{ "type": "Feature", "properties": { "id": 79041, "district_en": "Batumi", "district_ka": "ბათუმი", "precinct": 41.0, "name_en": "Batumi - 41", "name_ka": "ბათუმი - 41" }, "geometry": { "type": "Point", "coordinates": [ 41.67193020000002, 41.644279 ] } },
{ "type": "Feature", "properties": { "id": 79042, "district_en": "Batumi", "district_ka": "ბათუმი", "precinct": 42.0, "name_en": "Batumi - 42", "name_ka": "ბათუმი - 42" }, "geometry": { "type": "Point", "coordinates": [ 41.682700669589153, 41.659968247228797 ] } },
{ "type": "Feature", "properties": { "id": 79043, "district_en": "Batumi", "district_ka": "ბათუმი", "precinct": 43.0, "name_en": "Batumi - 43", "name_ka": "ბათუმი - 43" }, "geometry": { "type": "Point", "coordinates": [ 41.683692369291748, 41.661409145665367 ] } },
{ "type": "Feature", "properties": { "id": 79044, "district_en": "Batumi", "district_ka": "ბათუმი", "precinct": 44.0, "name_en": "Batumi - 44", "name_ka": "ბათუმი - 44" }, "geometry": { "type": "Point", "coordinates": [ 41.638127345507897, 41.635583109289051 ] } },
{ "type": "Feature", "properties": { "id": 79045, "district_en": "Batumi", "district_ka": "ბათუმი", "precinct": 45.0, "name_en": "Batumi - 45", "name_ka": "ბათუმი - 45" }, "geometry": { "type": "Point", "coordinates": [ 41.619168644180263, 41.625421690079186 ] } },
{ "type": "Feature", "properties": { "id": 79046, "district_en": "Batumi", "district_ka": "ბათუმი", "precinct": 46.0, "name_en": "Batumi - 46", "name_ka": "ბათუმი - 46" }, "geometry": { "type": "Point", "coordinates": [ 41.675300002098083, 41.65550320579846 ] } },
{ "type": "Feature", "properties": { "id": 79047, "district_en": "Batumi", "district_ka": "ბათუმი", "precinct": 47.0, "name_en": "Batumi - 47", "name_ka": "ბათუმი - 47" }, "geometry": { "type": "Point", "coordinates": [ 41.622532211808789, 41.625289363343363 ] } },
{ "type": "Feature", "properties": { "id": 79048, "district_en": "Batumi", "district_ka": "ბათუმი", "precinct": 48.0, "name_en": "Batumi - 48", "name_ka": "ბათუმი - 48" }, "geometry": { "type": "Point", "coordinates": [ 41.6159, 41.6278 ] } },
{ "type": "Feature", "properties": { "id": 79049, "district_en": "Batumi", "district_ka": "ბათუმი", "precinct": 49.0, "name_en": "Batumi - 49", "name_ka": "ბათუმი - 49" }, "geometry": { "type": "Point", "coordinates": [ 41.607709153936753, 41.632276167659377 ] } },
{ "type": "Feature", "properties": { "id": 79050, "district_en": "Batumi", "district_ka": "ბათუმი", "precinct": 50.0, "name_en": "Batumi - 50", "name_ka": "ბათუმი - 50" }, "geometry": { "type": "Point", "coordinates": [ 41.637774698741865, 41.642081419965443 ] } },
{ "type": "Feature", "properties": { "id": 79051, "district_en": "Batumi", "district_ka": "ბათუმი", "precinct": 51.0, "name_en": "Batumi - 51", "name_ka": "ბათუმი - 51" }, "geometry": { "type": "Point", "coordinates": [ 41.64714042984609, 41.644438165555606 ] } },
{ "type": "Feature", "properties": { "id": 79052, "district_en": "Batumi", "district_ka": "ბათუმი", "precinct": 52.0, "name_en": "Batumi - 52", "name_ka": "ბათუმი - 52" }, "geometry": { "type": "Point", "coordinates": [ 41.597692966461182, 41.620956583502625 ] } },
{ "type": "Feature", "properties": { "id": 79053, "district_en": "Batumi", "district_ka": "ბათუმი", "precinct": 53.0, "name_en": "Batumi - 53", "name_ka": "ბათუმი - 53" }, "geometry": { "type": "Point", "coordinates": [ 41.614478230476379, 41.610697679589315 ] } },
{ "type": "Feature", "properties": { "id": 79054, "district_en": "Batumi", "district_ka": "ბათუმი", "precinct": 54.0, "name_en": "Batumi - 54", "name_ka": "ბათუმი - 54" }, "geometry": { "type": "Point", "coordinates": [ 41.63927185216221, 41.624526572010332 ] } },
{ "type": "Feature", "properties": { "id": 79055, "district_en": "Batumi", "district_ka": "ბათუმი", "precinct": 55.0, "name_en": "Batumi - 55", "name_ka": "ბათუმი - 55" }, "geometry": { "type": "Point", "coordinates": [ 41.637099981307983, 41.625187204244412 ] } },
{ "type": "Feature", "properties": { "id": 79056, "district_en": "Batumi", "district_ka": "ბათუმი", "precinct": 56.0, "name_en": "Batumi - 56", "name_ka": "ბათუმი - 56" }, "geometry": { "type": "Point", "coordinates": [ 41.648113297717259, 41.586159486719886 ] } },
{ "type": "Feature", "properties": { "id": 79057, "district_en": "Batumi", "district_ka": "ბათუმი", "precinct": 57.0, "name_en": "Batumi - 57", "name_ka": "ბათუმი - 57" }, "geometry": { "type": "Point", "coordinates": [ 41.653733324545342, 41.602526009215588 ] } },
{ "type": "Feature", "properties": { "id": 79058, "district_en": "Batumi", "district_ka": "ბათუმი", "precinct": 58.0, "name_en": "Batumi - 58", "name_ka": "ბათუმი - 58" }, "geometry": { "type": "Point", "coordinates": [ 41.629707813262939, 41.603493815036884 ] } },
{ "type": "Feature", "properties": { "id": 79059, "district_en": "Batumi", "district_ka": "ბათუმი", "precinct": 59.0, "name_en": "Batumi - 59", "name_ka": "ბათუმი - 59" }, "geometry": { "type": "Point", "coordinates": [ 41.622806710450732, 41.611242488651548 ] } },
{ "type": "Feature", "properties": { "id": 79060, "district_en": "Batumi", "district_ka": "ბათუმი", "precinct": 60.0, "name_en": "Batumi - 60", "name_ka": "ბათუმი - 60" }, "geometry": { "type": "Point", "coordinates": [ 41.570806503295898, 41.565491757403038 ] } },
{ "type": "Feature", "properties": { "id": 79061, "district_en": "Batumi", "district_ka": "ბათუმი", "precinct": 61.0, "name_en": "Batumi - 61", "name_ka": "ბათუმი - 61" }, "geometry": { "type": "Point", "coordinates": [ 41.658766865730286, 41.577886713637483 ] } },
{ "type": "Feature", "properties": { "id": 79062, "district_en": "Batumi", "district_ka": "ბათუმი", "precinct": 62.0, "name_en": "Batumi - 62", "name_ka": "ბათუმი - 62" }, "geometry": { "type": "Point", "coordinates": [ 41.729233, 41.716877 ] } },
{ "type": "Feature", "properties": { "id": 79063, "district_en": "Batumi", "district_ka": "ბათუმი", "precinct": 63.0, "name_en": "Batumi - 63", "name_ka": "ბათუმი - 63" }, "geometry": { "type": "Point", "coordinates": [ 41.70047, 41.68357 ] } },
{ "type": "Feature", "properties": { "id": 79064, "district_en": "Batumi", "district_ka": "ბათუმი", "precinct": 64.0, "name_en": "Batumi - 64", "name_ka": "ბათუმი - 64" }, "geometry": { "type": "Point", "coordinates": [ 41.685578227043152, 41.663691130464919 ] } },
{ "type": "Feature", "properties": { "id": 79065, "district_en": "Batumi", "district_ka": "ბათუმი", "precinct": 65.0, "name_en": "Batumi - 65", "name_ka": "ბათუმი - 65" }, "geometry": { "type": "Point", "coordinates": [ 41.595144867897034, 41.585609031471584 ] } },
{ "type": "Feature", "properties": { "id": 79066, "district_en": "Batumi", "district_ka": "ბათუმი", "precinct": 66.0, "name_en": "Batumi - 66", "name_ka": "ბათუმი - 66" }, "geometry": { "type": "Point", "coordinates": [ 41.656868445446776, 41.58305925827085 ] } },
{ "type": "Feature", "properties": { "id": 79067, "district_en": "Batumi", "district_ka": "ბათუმი", "precinct": 67.0, "name_en": "Batumi - 67", "name_ka": "ბათუმი - 67" }, "geometry": { "type": "Point", "coordinates": [ 41.631763478851326, 41.646424494762464 ] } },
{ "type": "Feature", "properties": { "id": 79068, "district_en": "Batumi", "district_ka": "ბათუმი", "precinct": 68.0, "name_en": "Batumi - 68", "name_ka": "ბათუმი - 68" }, "geometry": { "type": "Point", "coordinates": [ 41.622489581753598, 41.643641968574549 ] } },
{ "type": "Feature", "properties": { "id": 79069, "district_en": "Batumi", "district_ka": "ბათუმი", "precinct": 69.0, "name_en": "Batumi - 69", "name_ka": "ბათუმი - 69" }, "geometry": { "type": "Point", "coordinates": [ 41.615489812372509, 41.636351364171453 ] } },
{ "type": "Feature", "properties": { "id": 79070, "district_en": "Batumi", "district_ka": "ბათუმი", "precinct": 70.0, "name_en": "Batumi - 70", "name_ka": "ბათუმი - 70" }, "geometry": { "type": "Point", "coordinates": [ 41.623642715869209, 41.640470797189984 ] } },
{ "type": "Feature", "properties": { "id": 79071, "district_en": "Batumi", "district_ka": "ბათუმი", "precinct": 71.0, "name_en": "Batumi - 71", "name_ka": "ბათუმი - 71" }, "geometry": { "type": "Point", "coordinates": [ 41.63270359870306, 41.634115958496892 ] } },
{ "type": "Feature", "properties": { "id": 79072, "district_en": "Batumi", "district_ka": "ბათუმი", "precinct": 72.0, "name_en": "Batumi - 72", "name_ka": "ბათუმი - 72" }, "geometry": { "type": "Point", "coordinates": [ 41.638036937503813, 41.636601451521315 ] } },
{ "type": "Feature", "properties": { "id": 79073, "district_en": "Batumi", "district_ka": "ბათუმი", "precinct": 73.0, "name_en": "Batumi - 73", "name_ka": "ბათუმი - 73" }, "geometry": { "type": "Point", "coordinates": [ 41.629156768964307, 41.63491435859352 ] } },
{ "type": "Feature", "properties": { "id": 79074, "district_en": "Batumi", "district_ka": "ბათუმი", "precinct": 74.0, "name_en": "Batumi - 74", "name_ka": "ბათუმი - 74" }, "geometry": { "type": "Point", "coordinates": [ 41.637772191510081, 41.64708457082866 ] } },
{ "type": "Feature", "properties": { "id": 79075, "district_en": "Batumi", "district_ka": "ბათუმი", "precinct": 75.0, "name_en": "Batumi - 75", "name_ka": "ბათუმი - 75" }, "geometry": { "type": "Point", "coordinates": [ 41.637829308945463, 41.642057033320484 ] } },
{ "type": "Feature", "properties": { "id": 79076, "district_en": "Batumi", "district_ka": "ბათუმი", "precinct": 76.0, "name_en": "Batumi - 76", "name_ka": "ბათუმი - 76" }, "geometry": { "type": "Point", "coordinates": [ 41.664036147846204, 41.640724980492664 ] } },
{ "type": "Feature", "properties": { "id": 79077, "district_en": "Batumi", "district_ka": "ბათუმი", "precinct": 77.0, "name_en": "Batumi - 77", "name_ka": "ბათუმი - 77" }, "geometry": { "type": "Point", "coordinates": [ 41.676421165466309, 41.639084142714026 ] } },
{ "type": "Feature", "properties": { "id": 79078, "district_en": "Batumi", "district_ka": "ბათუმი", "precinct": 78.0, "name_en": "Batumi - 78", "name_ka": "ბათუმი - 78" }, "geometry": { "type": "Point", "coordinates": [ 41.667716857949813, 41.647791576063661 ] } },
{ "type": "Feature", "properties": { "id": 79079, "district_en": "Batumi", "district_ka": "ბათუმი", "precinct": 79.0, "name_en": "Batumi - 79", "name_ka": "ბათუმი - 79" }, "geometry": { "type": "Point", "coordinates": [ 41.682475364031916, 41.660184666534846 ] } },
{ "type": "Feature", "properties": { "id": 79080, "district_en": "Batumi", "district_ka": "ბათუმი", "precinct": 80.0, "name_en": "Batumi - 80", "name_ka": "ბათუმი - 80" }, "geometry": { "type": "Point", "coordinates": [ 41.611895263195038, 41.637366232848407 ] } },
{ "type": "Feature", "properties": { "id": 79081, "district_en": "Batumi", "district_ka": "ბათუმი", "precinct": 81.0, "name_en": "Batumi - 81", "name_ka": "ბათუმი - 81" }, "geometry": { "type": "Point", "coordinates": [ 41.597692966461182, 41.620956583502625 ] } },
{ "type": "Feature", "properties": { "id": 79082, "district_en": "Batumi", "district_ka": "ბათუმი", "precinct": 82.0, "name_en": "Batumi - 82", "name_ka": "ბათუმი - 82" }, "geometry": { "type": "Point", "coordinates": [ 41.614478230476379, 41.610697679589315 ] } },
{ "type": "Feature", "properties": { "id": 79083, "district_en": "Batumi", "district_ka": "ბათუმი", "precinct": 83.0, "name_en": "Batumi - 83", "name_ka": "ბათუმი - 83" }, "geometry": { "type": "Point", "coordinates": [ 41.647147536277771, 41.636305796550197 ] } },
{ "type": "Feature", "properties": { "id": 79084, "district_en": "Batumi", "district_ka": "ბათუმი", "precinct": 84.0, "name_en": "Batumi - 84", "name_ka": "ბათუმი - 84" }, "geometry": { "type": "Point", "coordinates": [ 41.631338596343994, 41.613124190038391 ] } },
{ "type": "Feature", "properties": { "id": 79085, "district_en": "Batumi", "district_ka": "ბათუმი", "precinct": 85.0, "name_en": "Batumi - 85", "name_ka": "ბათუმი - 85" }, "geometry": { "type": "Point", "coordinates": [ 41.636863946914673, 41.61141862342285 ] } },
{ "type": "Feature", "properties": { "id": 79086, "district_en": "Batumi", "district_ka": "ბათუმი", "precinct": 86.0, "name_en": "Batumi - 86", "name_ka": "ბათუმი - 86" }, "geometry": { "type": "Point", "coordinates": [ 41.570806503295898, 41.565491757403038 ] } },
{ "type": "Feature", "properties": { "id": 79087, "district_en": "Batumi", "district_ka": "ბათუმი", "precinct": 87.0, "name_en": "Batumi - 87", "name_ka": "ბათუმი - 87" }, "geometry": { "type": "Point", "coordinates": [ 41.648113297717259, 41.586159486719886 ] } },
{ "type": "Feature", "properties": { "id": 79088, "district_en": "Batumi", "district_ka": "ბათუმი", "precinct": 88.0, "name_en": "Batumi - 88", "name_ka": "ბათუმი - 88" }, "geometry": { "type": "Point", "coordinates": [ 41.700169444084167, 41.676065224615037 ] } },
{ "type": "Feature", "properties": { "id": 79089, "district_en": "Batumi", "district_ka": "ბათუმი", "precinct": 89.0, "name_en": "Batumi - 89", "name_ka": "ბათუმი - 89" }, "geometry": { "type": "Point", "coordinates": [ 41.631326, 41.59893 ] } },
{ "type": "Feature", "properties": { "id": 80001, "district_en": "Keda", "district_ka": "ქედა", "precinct": 1.0, "name_en": "Keda - 1", "name_ka": "ქედა - 1" }, "geometry": { "type": "Point", "coordinates": [ 41.939453632124355, 41.59772561217634 ] } },
{ "type": "Feature", "properties": { "id": 80002, "district_en": "Keda", "district_ka": "ქედა", "precinct": 2.0, "name_en": "Keda - 2", "name_ka": "ქედა - 2" }, "geometry": { "type": "Point", "coordinates": [ 41.941266236909541, 41.600301924863572 ] } },
{ "type": "Feature", "properties": { "id": 80003, "district_en": "Keda", "district_ka": "ქედა", "precinct": 3.0, "name_en": "Keda - 3", "name_ka": "ქედა - 3" }, "geometry": { "type": "Point", "coordinates": [ 41.928275811639423, 41.58027752393685 ] } },
{ "type": "Feature", "properties": { "id": 80004, "district_en": "Keda", "district_ka": "ქედა", "precinct": 4.0, "name_en": "Keda - 4", "name_ka": "ქედა - 4" }, "geometry": { "type": "Point", "coordinates": [ 41.921880674621548, 41.591717308150024 ] } },
{ "type": "Feature", "properties": { "id": 80005, "district_en": "Keda", "district_ka": "ქედა", "precinct": 5.0, "name_en": "Keda - 5", "name_ka": "ქედა - 5" }, "geometry": { "type": "Point", "coordinates": [ 41.967937052249908, 41.599564642372904 ] } },
{ "type": "Feature", "properties": { "id": 80006, "district_en": "Keda", "district_ka": "ქედა", "precinct": 6.0, "name_en": "Keda - 6", "name_ka": "ქედა - 6" }, "geometry": { "type": "Point", "coordinates": [ 42.09287703037262, 41.628322897554987 ] } },
{ "type": "Feature", "properties": { "id": 80007, "district_en": "Keda", "district_ka": "ქედა", "precinct": 7.0, "name_en": "Keda - 7", "name_ka": "ქედა - 7" }, "geometry": { "type": "Point", "coordinates": [ 42.098211944103241, 41.643026943527843 ] } },
{ "type": "Feature", "properties": { "id": 80008, "district_en": "Keda", "district_ka": "ქედა", "precinct": 8.0, "name_en": "Keda - 8", "name_ka": "ქედა - 8" }, "geometry": { "type": "Point", "coordinates": [ 42.114437967538834, 41.64011546800392 ] } },
{ "type": "Feature", "properties": { "id": 80009, "district_en": "Keda", "district_ka": "ქედა", "precinct": 9.0, "name_en": "Keda - 9", "name_ka": "ქედა - 9" }, "geometry": { "type": "Point", "coordinates": [ 42.112256175424136, 41.630099892631975 ] } },
{ "type": "Feature", "properties": { "id": 80010, "district_en": "Keda", "district_ka": "ქედა", "precinct": 10.0, "name_en": "Keda - 10", "name_ka": "ქედა - 10" }, "geometry": { "type": "Point", "coordinates": [ 41.975054422159587, 41.626263980680513 ] } },
{ "type": "Feature", "properties": { "id": 80011, "district_en": "Keda", "district_ka": "ქედა", "precinct": 11.0, "name_en": "Keda - 11", "name_ka": "ქედა - 11" }, "geometry": { "type": "Point", "coordinates": [ 41.979603207934588, 41.619059534761796 ] } },
{ "type": "Feature", "properties": { "id": 80012, "district_en": "Keda", "district_ka": "ქედა", "precinct": 12.0, "name_en": "Keda - 12", "name_ka": "ქედა - 12" }, "geometry": { "type": "Point", "coordinates": [ 41.990703227053011, 41.624573746456811 ] } },
{ "type": "Feature", "properties": { "id": 80013, "district_en": "Keda", "district_ka": "ქედა", "precinct": 13.0, "name_en": "Keda - 13", "name_ka": "ქედა - 13" }, "geometry": { "type": "Point", "coordinates": [ 41.786319700000035, 41.5478433 ] } },
{ "type": "Feature", "properties": { "id": 80014, "district_en": "Keda", "district_ka": "ქედა", "precinct": 14.0, "name_en": "Keda - 14", "name_ka": "ქედა - 14" }, "geometry": { "type": "Point", "coordinates": [ 41.811219779361601, 41.537482933875289 ] } },
{ "type": "Feature", "properties": { "id": 80015, "district_en": "Keda", "district_ka": "ქედა", "precinct": 15.0, "name_en": "Keda - 15", "name_ka": "ქედა - 15" }, "geometry": { "type": "Point", "coordinates": [ 41.831912236245671, 41.565691790893183 ] } },
{ "type": "Feature", "properties": { "id": 80016, "district_en": "Keda", "district_ka": "ქედა", "precinct": 16.0, "name_en": "Keda - 16", "name_ka": "ქედა - 16" }, "geometry": { "type": "Point", "coordinates": [ 41.859133201110829, 41.572326139245035 ] } },
{ "type": "Feature", "properties": { "id": 80017, "district_en": "Keda", "district_ka": "ქედა", "precinct": 17.0, "name_en": "Keda - 17", "name_ka": "ქედა - 17" }, "geometry": { "type": "Point", "coordinates": [ 42.003080415205446, 41.577814800494536 ] } },
{ "type": "Feature", "properties": { "id": 80018, "district_en": "Keda", "district_ka": "ქედა", "precinct": 18.0, "name_en": "Keda - 18", "name_ka": "ქედა - 18" }, "geometry": { "type": "Point", "coordinates": [ 42.011017777840401, 41.579530181144968 ] } },
{ "type": "Feature", "properties": { "id": 80019, "district_en": "Keda", "district_ka": "ქედა", "precinct": 19.0, "name_en": "Keda - 19", "name_ka": "ქედა - 19" }, "geometry": { "type": "Point", "coordinates": [ 41.966110467910767, 41.579184865928163 ] } },
{ "type": "Feature", "properties": { "id": 80020, "district_en": "Keda", "district_ka": "ქედა", "precinct": 20.0, "name_en": "Keda - 20", "name_ka": "ქედა - 20" }, "geometry": { "type": "Point", "coordinates": [ 41.97495307982706, 41.564518605797929 ] } },
{ "type": "Feature", "properties": { "id": 80021, "district_en": "Keda", "district_ka": "ქედა", "precinct": 21.0, "name_en": "Keda - 21", "name_ka": "ქედა - 21" }, "geometry": { "type": "Point", "coordinates": [ 41.879312013963244, 41.590869663665138 ] } },
{ "type": "Feature", "properties": { "id": 80022, "district_en": "Keda", "district_ka": "ქედა", "precinct": 22.0, "name_en": "Keda - 22", "name_ka": "ქედა - 22" }, "geometry": { "type": "Point", "coordinates": [ 41.887720108984354, 41.574342775283391 ] } },
{ "type": "Feature", "properties": { "id": 80023, "district_en": "Keda", "district_ka": "ქედა", "precinct": 23.0, "name_en": "Keda - 23", "name_ka": "ქედა - 23" }, "geometry": { "type": "Point", "coordinates": [ 41.895305550262492, 41.609431666702193 ] } },
{ "type": "Feature", "properties": { "id": 80024, "district_en": "Keda", "district_ka": "ქედა", "precinct": 24.0, "name_en": "Keda - 24", "name_ka": "ქედა - 24" }, "geometry": { "type": "Point", "coordinates": [ 42.061550694334422, 41.64369762125817 ] } },
{ "type": "Feature", "properties": { "id": 80025, "district_en": "Keda", "district_ka": "ქედა", "precinct": 25.0, "name_en": "Keda - 25", "name_ka": "ქედა - 25" }, "geometry": { "type": "Point", "coordinates": [ 42.04805643498765, 41.640110831802815 ] } },
{ "type": "Feature", "properties": { "id": 80026, "district_en": "Keda", "district_ka": "ქედა", "precinct": 26.0, "name_en": "Keda - 26", "name_ka": "ქედა - 26" }, "geometry": { "type": "Point", "coordinates": [ 42.056797980673196, 41.652603766704352 ] } },
{ "type": "Feature", "properties": { "id": 80027, "district_en": "Keda", "district_ka": "ქედა", "precinct": 27.0, "name_en": "Keda - 27", "name_ka": "ქედა - 27" }, "geometry": { "type": "Point", "coordinates": [ 42.076113224029541, 41.647939572284358 ] } },
{ "type": "Feature", "properties": { "id": 80028, "district_en": "Keda", "district_ka": "ქედა", "precinct": 28.0, "name_en": "Keda - 28", "name_ka": "ქედა - 28" }, "geometry": { "type": "Point", "coordinates": [ 42.013273857347137, 41.64430435192687 ] } },
{ "type": "Feature", "properties": { "id": 80029, "district_en": "Keda", "district_ka": "ქედა", "precinct": 29.0, "name_en": "Keda - 29", "name_ka": "ქედა - 29" }, "geometry": { "type": "Point", "coordinates": [ 42.068228818632534, 41.639383997581568 ] } },
{ "type": "Feature", "properties": { "id": 81001, "district_en": "Kobuleti", "district_ka": "ქობულეთი", "precinct": 1.0, "name_en": "Kobuleti - 1", "name_ka": "ქობულეთი - 1" }, "geometry": { "type": "Point", "coordinates": [ 41.781339331044038, 41.798526194057878 ] } },
{ "type": "Feature", "properties": { "id": 81002, "district_en": "Kobuleti", "district_ka": "ქობულეთი", "precinct": 2.0, "name_en": "Kobuleti - 2", "name_ka": "ქობულეთი - 2" }, "geometry": { "type": "Point", "coordinates": [ 41.77862673997879, 41.809984085452683 ] } },
{ "type": "Feature", "properties": { "id": 81003, "district_en": "Kobuleti", "district_ka": "ქობულეთი", "precinct": 3.0, "name_en": "Kobuleti - 3", "name_ka": "ქობულეთი - 3" }, "geometry": { "type": "Point", "coordinates": [ 41.780480146408081, 41.815169828575591 ] } },
{ "type": "Feature", "properties": { "id": 81004, "district_en": "Kobuleti", "district_ka": "ქობულეთი", "precinct": 4.0, "name_en": "Kobuleti - 4", "name_ka": "ქობულეთი - 4" }, "geometry": { "type": "Point", "coordinates": [ 41.788691968122862, 41.810020063418555 ] } },
{ "type": "Feature", "properties": { "id": 81005, "district_en": "Kobuleti", "district_ka": "ქობულეთი", "precinct": 5.0, "name_en": "Kobuleti - 5", "name_ka": "ქობულეთი - 5" }, "geometry": { "type": "Point", "coordinates": [ 41.775991015591444, 41.820480186234661 ] } },
{ "type": "Feature", "properties": { "id": 81006, "district_en": "Kobuleti", "district_ka": "ქობულეთი", "precinct": 6.0, "name_en": "Kobuleti - 6", "name_ka": "ქობულეთი - 6" }, "geometry": { "type": "Point", "coordinates": [ 41.775441194581603, 41.812419409306642 ] } },
{ "type": "Feature", "properties": { "id": 81007, "district_en": "Kobuleti", "district_ka": "ქობულეთი", "precinct": 7.0, "name_en": "Kobuleti - 7", "name_ka": "ქობულეთი - 7" }, "geometry": { "type": "Point", "coordinates": [ 41.777198045967495, 41.823483053789545 ] } },
{ "type": "Feature", "properties": { "id": 81008, "district_en": "Kobuleti", "district_ka": "ქობულეთი", "precinct": 8.0, "name_en": "Kobuleti - 8", "name_ka": "ქობულეთი - 8" }, "geometry": { "type": "Point", "coordinates": [ 41.779793922753939, 41.830639048124006 ] } },
{ "type": "Feature", "properties": { "id": 81009, "district_en": "Kobuleti", "district_ka": "ქობულეთი", "precinct": 9.0, "name_en": "Kobuleti - 9", "name_ka": "ქობულეთი - 9" }, "geometry": { "type": "Point", "coordinates": [ 41.780926572908008, 41.835729104761853 ] } },
{ "type": "Feature", "properties": { "id": 81010, "district_en": "Kobuleti", "district_ka": "ქობულეთი", "precinct": 10.0, "name_en": "Kobuleti - 10", "name_ka": "ქობულეთი - 10" }, "geometry": { "type": "Point", "coordinates": [ 41.780831257672141, 41.839617730460084 ] } },
{ "type": "Feature", "properties": { "id": 81011, "district_en": "Kobuleti", "district_ka": "ქობულეთი", "precinct": 11.0, "name_en": "Kobuleti - 11", "name_ka": "ქობულეთი - 11" }, "geometry": { "type": "Point", "coordinates": [ 41.781011153858913, 41.841981341798757 ] } },
{ "type": "Feature", "properties": { "id": 81012, "district_en": "Kobuleti", "district_ka": "ქობულეთი", "precinct": 12.0, "name_en": "Kobuleti - 12", "name_ka": "ქობულეთი - 12" }, "geometry": { "type": "Point", "coordinates": [ 41.780396997928619, 41.871881706134261 ] } },
{ "type": "Feature", "properties": { "id": 81013, "district_en": "Kobuleti", "district_ka": "ქობულეთი", "precinct": 13.0, "name_en": "Kobuleti - 13", "name_ka": "ქობულეთი - 13" }, "geometry": { "type": "Point", "coordinates": [ 41.818414234115586, 41.890974516132452 ] } },
{ "type": "Feature", "properties": { "id": 81014, "district_en": "Kobuleti", "district_ka": "ქობულეთი", "precinct": 14.0, "name_en": "Kobuleti - 14", "name_ka": "ქობულეთი - 14" }, "geometry": { "type": "Point", "coordinates": [ 41.833763116326963, 41.856992670531412 ] } },
{ "type": "Feature", "properties": { "id": 81015, "district_en": "Kobuleti", "district_ka": "ქობულეთი", "precinct": 15.0, "name_en": "Kobuleti - 15", "name_ka": "ქობულეთი - 15" }, "geometry": { "type": "Point", "coordinates": [ 41.870138887348936, 41.867686159014532 ] } },
{ "type": "Feature", "properties": { "id": 81016, "district_en": "Kobuleti", "district_ka": "ქობულეთი", "precinct": 16.0, "name_en": "Kobuleti - 16", "name_ka": "ქობულეთი - 16" }, "geometry": { "type": "Point", "coordinates": [ 41.913316547870636, 41.88621056918084 ] } },
{ "type": "Feature", "properties": { "id": 81017, "district_en": "Kobuleti", "district_ka": "ქობულეთი", "precinct": 17.0, "name_en": "Kobuleti - 17", "name_ka": "ქობულეთი - 17" }, "geometry": { "type": "Point", "coordinates": [ 41.872265124575733, 41.832160664916621 ] } },
{ "type": "Feature", "properties": { "id": 81018, "district_en": "Kobuleti", "district_ka": "ქობულეთი", "precinct": 18.0, "name_en": "Kobuleti - 18", "name_ka": "ქობულეთი - 18" }, "geometry": { "type": "Point", "coordinates": [ 41.871336464387468, 41.81498608229208 ] } },
{ "type": "Feature", "properties": { "id": 81019, "district_en": "Kobuleti", "district_ka": "ქობულეთი", "precinct": 19.0, "name_en": "Kobuleti - 19", "name_ka": "ქობულეთი - 19" }, "geometry": { "type": "Point", "coordinates": [ 41.904317736625671, 41.815285773314848 ] } },
{ "type": "Feature", "properties": { "id": 81020, "district_en": "Kobuleti", "district_ka": "ქობულეთი", "precinct": 20.0, "name_en": "Kobuleti - 20", "name_ka": "ქობულეთი - 20" }, "geometry": { "type": "Point", "coordinates": [ 41.866737017196684, 41.841697218576229 ] } },
{ "type": "Feature", "properties": { "id": 81021, "district_en": "Kobuleti", "district_ka": "ქობულეთი", "precinct": 21.0, "name_en": "Kobuleti - 21", "name_ka": "ქობულეთი - 21" }, "geometry": { "type": "Point", "coordinates": [ 41.920405626296997, 41.825723937760984 ] } },
{ "type": "Feature", "properties": { "id": 81022, "district_en": "Kobuleti", "district_ka": "ქობულეთი", "precinct": 22.0, "name_en": "Kobuleti - 22", "name_ka": "ქობულეთი - 22" }, "geometry": { "type": "Point", "coordinates": [ 41.910184466934197, 41.855164966021988 ] } },
{ "type": "Feature", "properties": { "id": 81023, "district_en": "Kobuleti", "district_ka": "ქობულეთი", "precinct": 23.0, "name_en": "Kobuleti - 23", "name_ka": "ქობულეთი - 23" }, "geometry": { "type": "Point", "coordinates": [ 41.942684054374695, 41.871186649620306 ] } },
{ "type": "Feature", "properties": { "id": 81024, "district_en": "Kobuleti", "district_ka": "ქობულეთი", "precinct": 24.0, "name_en": "Kobuleti - 24", "name_ka": "ქობულეთი - 24" }, "geometry": { "type": "Point", "coordinates": [ 41.891684532165527, 41.853893687705295 ] } },
{ "type": "Feature", "properties": { "id": 81025, "district_en": "Kobuleti", "district_ka": "ქობულეთი", "precinct": 25.0, "name_en": "Kobuleti - 25", "name_ka": "ქობულეთი - 25" }, "geometry": { "type": "Point", "coordinates": [ 41.959040696009104, 41.85748584816254 ] } },
{ "type": "Feature", "properties": { "id": 81026, "district_en": "Kobuleti", "district_ka": "ქობულეთი", "precinct": 26.0, "name_en": "Kobuleti - 26", "name_ka": "ქობულეთი - 26" }, "geometry": { "type": "Point", "coordinates": [ 42.0041844310051, 41.839796886320904 ] } },
{ "type": "Feature", "properties": { "id": 81027, "district_en": "Kobuleti", "district_ka": "ქობულეთი", "precinct": 27.0, "name_en": "Kobuleti - 27", "name_ka": "ქობულეთი - 27" }, "geometry": { "type": "Point", "coordinates": [ 41.839736795462045, 41.825758183757856 ] } },
{ "type": "Feature", "properties": { "id": 81028, "district_en": "Kobuleti", "district_ka": "ქობულეთი", "precinct": 28.0, "name_en": "Kobuleti - 28", "name_ka": "ქობულეთი - 28" }, "geometry": { "type": "Point", "coordinates": [ 41.830391198465875, 41.804608687691719 ] } },
{ "type": "Feature", "properties": { "id": 81029, "district_en": "Kobuleti", "district_ka": "ქობულეთი", "precinct": 29.0, "name_en": "Kobuleti - 29", "name_ka": "ქობულეთი - 29" }, "geometry": { "type": "Point", "coordinates": [ 41.83891228108974, 41.798873761309316 ] } },
{ "type": "Feature", "properties": { "id": 81030, "district_en": "Kobuleti", "district_ka": "ქობულეთი", "precinct": 30.0, "name_en": "Kobuleti - 30", "name_ka": "ქობულეთი - 30" }, "geometry": { "type": "Point", "coordinates": [ 41.802899307934581, 41.806619650905283 ] } },
{ "type": "Feature", "properties": { "id": 81031, "district_en": "Kobuleti", "district_ka": "ქობულეთი", "precinct": 31.0, "name_en": "Kobuleti - 31", "name_ka": "ქობულეთი - 31" }, "geometry": { "type": "Point", "coordinates": [ 41.845374018023065, 41.810398626589674 ] } },
{ "type": "Feature", "properties": { "id": 81032, "district_en": "Kobuleti", "district_ka": "ქობულეთი", "precinct": 32.0, "name_en": "Kobuleti - 32", "name_ka": "ქობულეთი - 32" }, "geometry": { "type": "Point", "coordinates": [ 41.825023591518402, 41.786005062346533 ] } },
{ "type": "Feature", "properties": { "id": 81033, "district_en": "Kobuleti", "district_ka": "ქობულეთი", "precinct": 33.0, "name_en": "Kobuleti - 33", "name_ka": "ქობულეთი - 33" }, "geometry": { "type": "Point", "coordinates": [ 41.813621520996094, 41.784569075656108 ] } },
{ "type": "Feature", "properties": { "id": 81034, "district_en": "Kobuleti", "district_ka": "ქობულეთი", "precinct": 34.0, "name_en": "Kobuleti - 34", "name_ka": "ქობულეთი - 34" }, "geometry": { "type": "Point", "coordinates": [ 41.832246388005068, 41.772906676141893 ] } },
{ "type": "Feature", "properties": { "id": 81035, "district_en": "Kobuleti", "district_ka": "ქობულეთი", "precinct": 35.0, "name_en": "Kobuleti - 35", "name_ka": "ქობულეთი - 35" }, "geometry": { "type": "Point", "coordinates": [ 41.791332364082336, 41.765546217895519 ] } },
{ "type": "Feature", "properties": { "id": 81036, "district_en": "Kobuleti", "district_ka": "ქობულეთი", "precinct": 36.0, "name_en": "Kobuleti - 36", "name_ka": "ქობულეთი - 36" }, "geometry": { "type": "Point", "coordinates": [ 41.814224609123251, 41.753711238954153 ] } },
{ "type": "Feature", "properties": { "id": 81037, "district_en": "Kobuleti", "district_ka": "ქობულეთი", "precinct": 37.0, "name_en": "Kobuleti - 37", "name_ka": "ქობულეთი - 37" }, "geometry": { "type": "Point", "coordinates": [ 41.877334439742306, 41.803246166908238 ] } },
{ "type": "Feature", "properties": { "id": 81038, "district_en": "Kobuleti", "district_ka": "ქობულეთი", "precinct": 38.0, "name_en": "Kobuleti - 38", "name_ka": "ქობულეთი - 38" }, "geometry": { "type": "Point", "coordinates": [ 41.897625642436189, 41.802829904799395 ] } },
{ "type": "Feature", "properties": { "id": 81039, "district_en": "Kobuleti", "district_ka": "ქობულეთი", "precinct": 39.0, "name_en": "Kobuleti - 39", "name_ka": "ქობულეთი - 39" }, "geometry": { "type": "Point", "coordinates": [ 41.858403930488535, 41.788011724194511 ] } },
{ "type": "Feature", "properties": { "id": 81040, "district_en": "Kobuleti", "district_ka": "ქობულეთი", "precinct": 40.0, "name_en": "Kobuleti - 40", "name_ka": "ქობულეთი - 40" }, "geometry": { "type": "Point", "coordinates": [ 41.935557233274025, 41.802570894311401 ] } },
{ "type": "Feature", "properties": { "id": 81041, "district_en": "Kobuleti", "district_ka": "ქობულეთი", "precinct": 41.0, "name_en": "Kobuleti - 41", "name_ka": "ქობულეთი - 41" }, "geometry": { "type": "Point", "coordinates": [ 41.738662647299201, 41.743731322795504 ] } },
{ "type": "Feature", "properties": { "id": 81042, "district_en": "Kobuleti", "district_ka": "ქობულეთი", "precinct": 42.0, "name_en": "Kobuleti - 42", "name_ka": "ქობულეთი - 42" }, "geometry": { "type": "Point", "coordinates": [ 41.734438662734988, 41.724886270822637 ] } },
{ "type": "Feature", "properties": { "id": 81043, "district_en": "Kobuleti", "district_ka": "ქობულეთი", "precinct": 43.0, "name_en": "Kobuleti - 43", "name_ka": "ქობულეთი - 43" }, "geometry": { "type": "Point", "coordinates": [ 41.742534363784777, 41.717870630793946 ] } },
{ "type": "Feature", "properties": { "id": 81044, "district_en": "Kobuleti", "district_ka": "ქობულეთი", "precinct": 44.0, "name_en": "Kobuleti - 44", "name_ka": "ქობულეთი - 44" }, "geometry": { "type": "Point", "coordinates": [ 41.742929928094554, 41.685089966304567 ] } },
{ "type": "Feature", "properties": { "id": 81045, "district_en": "Kobuleti", "district_ka": "ქობულეთი", "precinct": 45.0, "name_en": "Kobuleti - 45", "name_ka": "ქობულეთი - 45" }, "geometry": { "type": "Point", "coordinates": [ 41.735032796859741, 41.686554092903428 ] } },
{ "type": "Feature", "properties": { "id": 81046, "district_en": "Kobuleti", "district_ka": "ქობულეთი", "precinct": 46.0, "name_en": "Kobuleti - 46", "name_ka": "ქობულეთი - 46" }, "geometry": { "type": "Point", "coordinates": [ 41.760534105834957, 41.70888887541939 ] } },
{ "type": "Feature", "properties": { "id": 81047, "district_en": "Kobuleti", "district_ka": "ქობულეთი", "precinct": 47.0, "name_en": "Kobuleti - 47", "name_ka": "ქობულეთი - 47" }, "geometry": { "type": "Point", "coordinates": [ 41.75029456615448, 41.734073110786937 ] } },
{ "type": "Feature", "properties": { "id": 81048, "district_en": "Kobuleti", "district_ka": "ქობულეთი", "precinct": 48.0, "name_en": "Kobuleti - 48", "name_ka": "ქობულეთი - 48" }, "geometry": { "type": "Point", "coordinates": [ 41.773102389024423, 41.737339607387234 ] } },
{ "type": "Feature", "properties": { "id": 81049, "district_en": "Kobuleti", "district_ka": "ქობულეთი", "precinct": 49.0, "name_en": "Kobuleti - 49", "name_ka": "ქობულეთი - 49" }, "geometry": { "type": "Point", "coordinates": [ 41.767112016677856, 41.72823224000723 ] } },
{ "type": "Feature", "properties": { "id": 81050, "district_en": "Kobuleti", "district_ka": "ქობულეთი", "precinct": 50.0, "name_en": "Kobuleti - 50", "name_ka": "ქობულეთი - 50" }, "geometry": { "type": "Point", "coordinates": [ 41.796244284833513, 41.706548761930847 ] } },
{ "type": "Feature", "properties": { "id": 81051, "district_en": "Kobuleti", "district_ka": "ქობულეთი", "precinct": 51.0, "name_en": "Kobuleti - 51", "name_ka": "ქობულეთი - 51" }, "geometry": { "type": "Point", "coordinates": [ 41.774551456344639, 41.711547540551898 ] } },
{ "type": "Feature", "properties": { "id": 81052, "district_en": "Kobuleti", "district_ka": "ქობულეთი", "precinct": 52.0, "name_en": "Kobuleti - 52", "name_ka": "ქობულეთი - 52" }, "geometry": { "type": "Point", "coordinates": [ 41.762896942040328, 41.765049223356371 ] } },
{ "type": "Feature", "properties": { "id": 81053, "district_en": "Kobuleti", "district_ka": "ქობულეთი", "precinct": 53.0, "name_en": "Kobuleti - 53", "name_ka": "ქობულეთი - 53" }, "geometry": { "type": "Point", "coordinates": [ 41.775385953967316, 41.750750457329829 ] } },
{ "type": "Feature", "properties": { "id": 81054, "district_en": "Kobuleti", "district_ka": "ქობულეთი", "precinct": 54.0, "name_en": "Kobuleti - 54", "name_ka": "ქობულეთი - 54" }, "geometry": { "type": "Point", "coordinates": [ 41.79174405158998, 41.766852342697788 ] } },
{ "type": "Feature", "properties": { "id": 81055, "district_en": "Kobuleti", "district_ka": "ქობულეთი", "precinct": 55.0, "name_en": "Kobuleti - 55", "name_ka": "ქობულეთი - 55" }, "geometry": { "type": "Point", "coordinates": [ 41.765106531560484, 41.765481293449874 ] } },
{ "type": "Feature", "properties": { "id": 81056, "district_en": "Kobuleti", "district_ka": "ქობულეთი", "precinct": 56.0, "name_en": "Kobuleti - 56", "name_ka": "ქობულეთი - 56" }, "geometry": { "type": "Point", "coordinates": [ 41.75856, 41.70649 ] } },
{ "type": "Feature", "properties": { "id": 81057, "district_en": "Kobuleti", "district_ka": "ქობულეთი", "precinct": 57.0, "name_en": "Kobuleti - 57", "name_ka": "ქობულეთი - 57" }, "geometry": { "type": "Point", "coordinates": [ 41.867117890876784, 41.841929011775463 ] } },
{ "type": "Feature", "properties": { "id": 82001, "district_en": "Shuakhevi", "district_ka": "შუახევი", "precinct": 1.0, "name_en": "Shuakhevi - 1", "name_ka": "შუახევი - 1" }, "geometry": { "type": "Point", "coordinates": [ 42.184253493129461, 41.624820072362589 ] } },
{ "type": "Feature", "properties": { "id": 82002, "district_en": "Shuakhevi", "district_ka": "შუახევი", "precinct": 2.0, "name_en": "Shuakhevi - 2", "name_ka": "შუახევი - 2" }, "geometry": { "type": "Point", "coordinates": [ 42.195185036773509, 41.641385112171044 ] } },
{ "type": "Feature", "properties": { "id": 82003, "district_en": "Shuakhevi", "district_ka": "შუახევი", "precinct": 3.0, "name_en": "Shuakhevi - 3", "name_ka": "შუახევი - 3" }, "geometry": { "type": "Point", "coordinates": [ 42.163403821487968, 41.626350212461183 ] } },
{ "type": "Feature", "properties": { "id": 82004, "district_en": "Shuakhevi", "district_ka": "შუახევი", "precinct": 4.0, "name_en": "Shuakhevi - 4", "name_ka": "შუახევი - 4" }, "geometry": { "type": "Point", "coordinates": [ 42.221893333898912, 41.639911437620668 ] } },
{ "type": "Feature", "properties": { "id": 82005, "district_en": "Shuakhevi", "district_ka": "შუახევი", "precinct": 5.0, "name_en": "Shuakhevi - 5", "name_ka": "შუახევი - 5" }, "geometry": { "type": "Point", "coordinates": [ 42.203323550935345, 41.675325106108183 ] } },
{ "type": "Feature", "properties": { "id": 82006, "district_en": "Shuakhevi", "district_ka": "შუახევი", "precinct": 6.0, "name_en": "Shuakhevi - 6", "name_ka": "შუახევი - 6" }, "geometry": { "type": "Point", "coordinates": [ 42.194030453610232, 41.667889676027102 ] } },
{ "type": "Feature", "properties": { "id": 82007, "district_en": "Shuakhevi", "district_ka": "შუახევი", "precinct": 7.0, "name_en": "Shuakhevi - 7", "name_ka": "შუახევი - 7" }, "geometry": { "type": "Point", "coordinates": [ 42.187018211462217, 41.678120003383754 ] } },
{ "type": "Feature", "properties": { "id": 82008, "district_en": "Shuakhevi", "district_ka": "შუახევი", "precinct": 8.0, "name_en": "Shuakhevi - 8", "name_ka": "შუახევი - 8" }, "geometry": { "type": "Point", "coordinates": [ 42.237065815571277, 41.680152111724126 ] } },
{ "type": "Feature", "properties": { "id": 82009, "district_en": "Shuakhevi", "district_ka": "შუახევი", "precinct": 9.0, "name_en": "Shuakhevi - 9", "name_ka": "შუახევი - 9" }, "geometry": { "type": "Point", "coordinates": [ 42.213128063881548, 41.580685086743593 ] } },
{ "type": "Feature", "properties": { "id": 82010, "district_en": "Shuakhevi", "district_ka": "შუახევი", "precinct": 10.0, "name_en": "Shuakhevi - 10", "name_ka": "შუახევი - 10" }, "geometry": { "type": "Point", "coordinates": [ 42.19422350331066, 41.585525913032825 ] } },
{ "type": "Feature", "properties": { "id": 82011, "district_en": "Shuakhevi", "district_ka": "შუახევი", "precinct": 11.0, "name_en": "Shuakhevi - 11", "name_ka": "შუახევი - 11" }, "geometry": { "type": "Point", "coordinates": [ 42.235590523803729, 41.580419354124139 ] } },
{ "type": "Feature", "properties": { "id": 82012, "district_en": "Shuakhevi", "district_ka": "შუახევი", "precinct": 12.0, "name_en": "Shuakhevi - 12", "name_ka": "შუახევი - 12" }, "geometry": { "type": "Point", "coordinates": [ 42.246097186880526, 41.574720363165476 ] } },
{ "type": "Feature", "properties": { "id": 82013, "district_en": "Shuakhevi", "district_ka": "შუახევი", "precinct": 13.0, "name_en": "Shuakhevi - 13", "name_ka": "შუახევი - 13" }, "geometry": { "type": "Point", "coordinates": [ 42.240045813120638, 41.557708667129667 ] } },
{ "type": "Feature", "properties": { "id": 82014, "district_en": "Shuakhevi", "district_ka": "შუახევი", "precinct": 14.0, "name_en": "Shuakhevi - 14", "name_ka": "შუახევი - 14" }, "geometry": { "type": "Point", "coordinates": [ 42.245162584996564, 41.647553207751258 ] } },
{ "type": "Feature", "properties": { "id": 82015, "district_en": "Shuakhevi", "district_ka": "შუახევი", "precinct": 15.0, "name_en": "Shuakhevi - 15", "name_ka": "შუახევი - 15" }, "geometry": { "type": "Point", "coordinates": [ 42.265609598811338, 41.610421969774173 ] } },
{ "type": "Feature", "properties": { "id": 82016, "district_en": "Shuakhevi", "district_ka": "შუახევი", "precinct": 16.0, "name_en": "Shuakhevi - 16", "name_ka": "შუახევი - 16" }, "geometry": { "type": "Point", "coordinates": [ 42.216391377493281, 41.621905094614817 ] } },
{ "type": "Feature", "properties": { "id": 82017, "district_en": "Shuakhevi", "district_ka": "შუახევი", "precinct": 17.0, "name_en": "Shuakhevi - 17", "name_ka": "შუახევი - 17" }, "geometry": { "type": "Point", "coordinates": [ 42.238844165897795, 41.620055410523953 ] } },
{ "type": "Feature", "properties": { "id": 82018, "district_en": "Shuakhevi", "district_ka": "შუახევი", "precinct": 18.0, "name_en": "Shuakhevi - 18", "name_ka": "შუახევი - 18" }, "geometry": { "type": "Point", "coordinates": [ 42.291567606082133, 41.560905070296215 ] } },
{ "type": "Feature", "properties": { "id": 82019, "district_en": "Shuakhevi", "district_ka": "შუახევი", "precinct": 19.0, "name_en": "Shuakhevi - 19", "name_ka": "შუახევი - 19" }, "geometry": { "type": "Point", "coordinates": [ 42.300776252375513, 41.565164378151636 ] } },
{ "type": "Feature", "properties": { "id": 82020, "district_en": "Shuakhevi", "district_ka": "შუახევი", "precinct": 20.0, "name_en": "Shuakhevi - 20", "name_ka": "შუახევი - 20" }, "geometry": { "type": "Point", "coordinates": [ 42.316940787798586, 41.550643757867562 ] } },
{ "type": "Feature", "properties": { "id": 82021, "district_en": "Shuakhevi", "district_ka": "შუახევი", "precinct": 21.0, "name_en": "Shuakhevi - 21", "name_ka": "შუახევი - 21" }, "geometry": { "type": "Point", "coordinates": [ 42.26741802029062, 41.560635689810631 ] } },
{ "type": "Feature", "properties": { "id": 82022, "district_en": "Shuakhevi", "district_ka": "შუახევი", "precinct": 22.0, "name_en": "Shuakhevi - 22", "name_ka": "შუახევი - 22" }, "geometry": { "type": "Point", "coordinates": [ 42.255929494631268, 41.554613651462667 ] } },
{ "type": "Feature", "properties": { "id": 82023, "district_en": "Shuakhevi", "district_ka": "შუახევი", "precinct": 23.0, "name_en": "Shuakhevi - 23", "name_ka": "შუახევი - 23" }, "geometry": { "type": "Point", "coordinates": [ 42.134444138251304, 41.591120438623129 ] } },
{ "type": "Feature", "properties": { "id": 82024, "district_en": "Shuakhevi", "district_ka": "შუახევი", "precinct": 24.0, "name_en": "Shuakhevi - 24", "name_ka": "შუახევი - 24" }, "geometry": { "type": "Point", "coordinates": [ 42.144326018385321, 41.611439183716392 ] } },
{ "type": "Feature", "properties": { "id": 82025, "district_en": "Shuakhevi", "district_ka": "შუახევი", "precinct": 25.0, "name_en": "Shuakhevi - 25", "name_ka": "შუახევი - 25" }, "geometry": { "type": "Point", "coordinates": [ 42.141404971302784, 41.57838120366857 ] } },
{ "type": "Feature", "properties": { "id": 82026, "district_en": "Shuakhevi", "district_ka": "შუახევი", "precinct": 26.0, "name_en": "Shuakhevi - 26", "name_ka": "შუახევი - 26" }, "geometry": { "type": "Point", "coordinates": [ 42.15493226078263, 41.554472953910192 ] } },
{ "type": "Feature", "properties": { "id": 82027, "district_en": "Shuakhevi", "district_ka": "შუახევი", "precinct": 27.0, "name_en": "Shuakhevi - 27", "name_ka": "შუახევი - 27" }, "geometry": { "type": "Point", "coordinates": [ 42.155255796681224, 41.570875384705936 ] } },
{ "type": "Feature", "properties": { "id": 82028, "district_en": "Shuakhevi", "district_ka": "შუახევი", "precinct": 28.0, "name_en": "Shuakhevi - 28", "name_ka": "შუახევი - 28" }, "geometry": { "type": "Point", "coordinates": [ 42.1791022, 41.6005359 ] } },
{ "type": "Feature", "properties": { "id": 82029, "district_en": "Shuakhevi", "district_ka": "შუახევი", "precinct": 29.0, "name_en": "Shuakhevi - 29", "name_ka": "შუახევი - 29" }, "geometry": { "type": "Point", "coordinates": [ 42.37016660908089, 41.519039724284717 ] } },
{ "type": "Feature", "properties": { "id": 82030, "district_en": "Shuakhevi", "district_ka": "შუახევი", "precinct": 30.0, "name_en": "Shuakhevi - 30", "name_ka": "შუახევი - 30" }, "geometry": { "type": "Point", "coordinates": [ 42.379375238509517, 41.508754127035296 ] } },
{ "type": "Feature", "properties": { "id": 82031, "district_en": "Shuakhevi", "district_ka": "შუახევი", "precinct": 31.0, "name_en": "Shuakhevi - 31", "name_ka": "შუახევი - 31" }, "geometry": { "type": "Point", "coordinates": [ 42.38767054546242, 41.517991785018509 ] } },
{ "type": "Feature", "properties": { "id": 82032, "district_en": "Shuakhevi", "district_ka": "შუახევი", "precinct": 32.0, "name_en": "Shuakhevi - 32", "name_ka": "შუახევი - 32" }, "geometry": { "type": "Point", "coordinates": [ 42.342227941873865, 41.543760282160946 ] } },
{ "type": "Feature", "properties": { "id": 82033, "district_en": "Shuakhevi", "district_ka": "შუახევი", "precinct": 33.0, "name_en": "Shuakhevi - 33", "name_ka": "შუახევი - 33" }, "geometry": { "type": "Point", "coordinates": [ 42.223903535182465, 41.724485547948426 ] } },
{ "type": "Feature", "properties": { "id": 82034, "district_en": "Shuakhevi", "district_ka": "შუახევი", "precinct": 34.0, "name_en": "Shuakhevi - 34", "name_ka": "შუახევი - 34" }, "geometry": { "type": "Point", "coordinates": [ 42.178861966346915, 41.708062332301374 ] } },
{ "type": "Feature", "properties": { "id": 82035, "district_en": "Shuakhevi", "district_ka": "შუახევი", "precinct": 35.0, "name_en": "Shuakhevi - 35", "name_ka": "შუახევი - 35" }, "geometry": { "type": "Point", "coordinates": [ 42.269197166762687, 41.758180482454655 ] } },
{ "type": "Feature", "properties": { "id": 82036, "district_en": "Shuakhevi", "district_ka": "შუახევი", "precinct": 36.0, "name_en": "Shuakhevi - 36", "name_ka": "შუახევი - 36" }, "geometry": { "type": "Point", "coordinates": [ 42.193908847982506, 41.699522097763989 ] } },
{ "type": "Feature", "properties": { "id": 82037, "district_en": "Shuakhevi", "district_ka": "შუახევი", "precinct": 37.0, "name_en": "Shuakhevi - 37", "name_ka": "შუახევი - 37" }, "geometry": { "type": "Point", "coordinates": [ 42.231556343739598, 41.719169122076913 ] } },
{ "type": "Feature", "properties": { "id": 82038, "district_en": "Shuakhevi", "district_ka": "შუახევი", "precinct": 38.0, "name_en": "Shuakhevi - 38", "name_ka": "შუახევი - 38" }, "geometry": { "type": "Point", "coordinates": [ 42.154775510589602, 41.674151220323644 ] } },
{ "type": "Feature", "properties": { "id": 82039, "district_en": "Shuakhevi", "district_ka": "შუახევი", "precinct": 39.0, "name_en": "Shuakhevi - 39", "name_ka": "შუახევი - 39" }, "geometry": { "type": "Point", "coordinates": [ 42.139723352453494, 41.659010378988746 ] } },
{ "type": "Feature", "properties": { "id": 82040, "district_en": "Shuakhevi", "district_ka": "შუახევი", "precinct": 40.0, "name_en": "Shuakhevi - 40", "name_ka": "შუახევი - 40" }, "geometry": { "type": "Point", "coordinates": [ 42.163379532085436, 41.690163450807638 ] } },
{ "type": "Feature", "properties": { "id": 82041, "district_en": "Shuakhevi", "district_ka": "შუახევი", "precinct": 41.0, "name_en": "Shuakhevi - 41", "name_ka": "შუახევი - 41" }, "geometry": { "type": "Point", "coordinates": [ 42.176077273325738, 41.668783957069415 ] } },
{ "type": "Feature", "properties": { "id": 82042, "district_en": "Shuakhevi", "district_ka": "შუახევი", "precinct": 42.0, "name_en": "Shuakhevi - 42", "name_ka": "შუახევი - 42" }, "geometry": { "type": "Point", "coordinates": [ 42.163057527151082, 41.664578140920675 ] } },
{ "type": "Feature", "properties": { "id": 82043, "district_en": "Shuakhevi", "district_ka": "შუახევი", "precinct": 43.0, "name_en": "Shuakhevi - 43", "name_ka": "შუახევი - 43" }, "geometry": { "type": "Point", "coordinates": [ 42.144222634615659, 41.65221407569932 ] } },
{ "type": "Feature", "properties": { "id": 82044, "district_en": "Shuakhevi", "district_ka": "შუახევი", "precinct": 44.0, "name_en": "Shuakhevi - 44", "name_ka": "შუახევი - 44" }, "geometry": { "type": "Point", "coordinates": [ 42.293873034329081, 41.579619868594733 ] } },
{ "type": "Feature", "properties": { "id": 82045, "district_en": "Shuakhevi", "district_ka": "შუახევი", "precinct": 45.0, "name_en": "Shuakhevi - 45", "name_ka": "შუახევი - 45" }, "geometry": { "type": "Point", "coordinates": [ 42.130650947568469, 41.645271540722703 ] } },
{ "type": "Feature", "properties": { "id": 82046, "district_en": "Shuakhevi", "district_ka": "შუახევი", "precinct": 46.0, "name_en": "Shuakhevi - 46", "name_ka": "შუახევი - 46" }, "geometry": { "type": "Point", "coordinates": [ 42.259340543958103, 41.628122855974169 ] } },
{ "type": "Feature", "properties": { "id": 82047, "district_en": "Shuakhevi", "district_ka": "შუახევი", "precinct": 47.0, "name_en": "Shuakhevi - 47", "name_ka": "შუახევი - 47" }, "geometry": { "type": "Point", "coordinates": [ 42.249265600269261, 41.61577013073375 ] } },
{ "type": "Feature", "properties": { "id": 82048, "district_en": "Shuakhevi", "district_ka": "შუახევი", "precinct": 48.0, "name_en": "Shuakhevi - 48", "name_ka": "შუახევი - 48" }, "geometry": { "type": "Point", "coordinates": [ 42.291100724850814, 41.56660042587098 ] } },
{ "type": "Feature", "properties": { "id": 83001, "district_en": "Khelvachauri", "district_ka": "ხელვაჩაური", "precinct": 1.0, "name_en": "Khelvachauri - 1", "name_ka": "ხელვაჩაური - 1" }, "geometry": { "type": "Point", "coordinates": [ 41.662230001867947, 41.586831563387726 ] } },
{ "type": "Feature", "properties": { "id": 83002, "district_en": "Khelvachauri", "district_ka": "ხელვაჩაური", "precinct": 2.0, "name_en": "Khelvachauri - 2", "name_ka": "ხელვაჩაური - 2" }, "geometry": { "type": "Point", "coordinates": [ 41.661400845651535, 41.587394354343417 ] } },
{ "type": "Feature", "properties": { "id": 83003, "district_en": "Khelvachauri", "district_ka": "ხელვაჩაური", "precinct": 3.0, "name_en": "Khelvachauri - 3", "name_ka": "ხელვაჩაური - 3" }, "geometry": { "type": "Point", "coordinates": [ 41.662275195121765, 41.586800702084368 ] } },
{ "type": "Feature", "properties": { "id": 83004, "district_en": "Khelvachauri", "district_ka": "ხელვაჩაური", "precinct": 4.0, "name_en": "Khelvachauri - 4", "name_ka": "ხელვაჩაური - 4" }, "geometry": { "type": "Point", "coordinates": [ 41.653765839691516, 41.602303218297756 ] } },
{ "type": "Feature", "properties": { "id": 83005, "district_en": "Khelvachauri", "district_ka": "ხელვაჩაური", "precinct": 5.0, "name_en": "Khelvachauri - 5", "name_ka": "ხელვაჩაური - 5" }, "geometry": { "type": "Point", "coordinates": [ 41.688973903656006, 41.566639649935667 ] } },
{ "type": "Feature", "properties": { "id": 83006, "district_en": "Khelvachauri", "district_ka": "ხელვაჩაური", "precinct": 6.0, "name_en": "Khelvachauri - 6", "name_ka": "ხელვაჩაური - 6" }, "geometry": { "type": "Point", "coordinates": [ 41.710517406463623, 41.574987345758238 ] } },
{ "type": "Feature", "properties": { "id": 83007, "district_en": "Khelvachauri", "district_ka": "ხელვაჩაური", "precinct": 7.0, "name_en": "Khelvachauri - 7", "name_ka": "ხელვაჩაური - 7" }, "geometry": { "type": "Point", "coordinates": [ 41.700228452682495, 41.675548349246206 ] } },
{ "type": "Feature", "properties": { "id": 83008, "district_en": "Khelvachauri", "district_ka": "ხელვაჩაური", "precinct": 8.0, "name_en": "Khelvachauri - 8", "name_ka": "ხელვაჩაური - 8" }, "geometry": { "type": "Point", "coordinates": [ 41.718062460422516, 41.665853161974546 ] } },
{ "type": "Feature", "properties": { "id": 83009, "district_en": "Khelvachauri", "district_ka": "ხელვაჩაური", "precinct": 9.0, "name_en": "Khelvachauri - 9", "name_ka": "ხელვაჩაური - 9" }, "geometry": { "type": "Point", "coordinates": [ 41.70185231815897, 41.662477940001999 ] } },
{ "type": "Feature", "properties": { "id": 83010, "district_en": "Khelvachauri", "district_ka": "ხელვაჩაური", "precinct": 10.0, "name_en": "Khelvachauri - 10", "name_ka": "ხელვაჩაური - 10" }, "geometry": { "type": "Point", "coordinates": [ 41.725681691697098, 41.643313524308695 ] } },
{ "type": "Feature", "properties": { "id": 83011, "district_en": "Khelvachauri", "district_ka": "ხელვაჩაური", "precinct": 11.0, "name_en": "Khelvachauri - 11", "name_ka": "ხელვაჩაური - 11" }, "geometry": { "type": "Point", "coordinates": [ 41.70534610748291, 41.649603086678113 ] } },
{ "type": "Feature", "properties": { "id": 83012, "district_en": "Khelvachauri", "district_ka": "ხელვაჩაური", "precinct": 12.0, "name_en": "Khelvachauri - 12", "name_ka": "ხელვაჩაური - 12" }, "geometry": { "type": "Point", "coordinates": [ 41.701762676239014, 41.644199514410921 ] } },
{ "type": "Feature", "properties": { "id": 83013, "district_en": "Khelvachauri", "district_ka": "ხელვაჩაური", "precinct": 13.0, "name_en": "Khelvachauri - 13", "name_ka": "ხელვაჩაური - 13" }, "geometry": { "type": "Point", "coordinates": [ 41.686422047547104, 41.64477267663608 ] } },
{ "type": "Feature", "properties": { "id": 83014, "district_en": "Khelvachauri", "district_ka": "ხელვაჩაური", "precinct": 14.0, "name_en": "Khelvachauri - 14", "name_ka": "ხელვაჩაური - 14" }, "geometry": { "type": "Point", "coordinates": [ 41.749017976955045, 41.642240172600701 ] } },
{ "type": "Feature", "properties": { "id": 83015, "district_en": "Khelvachauri", "district_ka": "ხელვაჩაური", "precinct": 15.0, "name_en": "Khelvachauri - 15", "name_ka": "ხელვაჩაური - 15" }, "geometry": { "type": "Point", "coordinates": [ 41.706306874401534, 41.651626241155327 ] } },
{ "type": "Feature", "properties": { "id": 83016, "district_en": "Khelvachauri", "district_ka": "ხელვაჩაური", "precinct": 16.0, "name_en": "Khelvachauri - 16", "name_ka": "ხელვაჩაური - 16" }, "geometry": { "type": "Point", "coordinates": [ 41.686647678018005, 41.622259051392732 ] } },
{ "type": "Feature", "properties": { "id": 83017, "district_en": "Khelvachauri", "district_ka": "ხელვაჩაური", "precinct": 17.0, "name_en": "Khelvachauri - 17", "name_ka": "ხელვაჩაური - 17" }, "geometry": { "type": "Point", "coordinates": [ 41.698103917973853, 41.617047303672912 ] } },
{ "type": "Feature", "properties": { "id": 83018, "district_en": "Khelvachauri", "district_ka": "ხელვაჩაური", "precinct": 18.0, "name_en": "Khelvachauri - 18", "name_ka": "ხელვაჩაური - 18" }, "geometry": { "type": "Point", "coordinates": [ 41.696365282175087, 41.605402829112151 ] } },
{ "type": "Feature", "properties": { "id": 83019, "district_en": "Khelvachauri", "district_ka": "ხელვაჩაური", "precinct": 19.0, "name_en": "Khelvachauri - 19", "name_ka": "ხელვაჩაური - 19" }, "geometry": { "type": "Point", "coordinates": [ 41.695951343276008, 41.631872913141152 ] } },
{ "type": "Feature", "properties": { "id": 83020, "district_en": "Khelvachauri", "district_ka": "ხელვაჩაური", "precinct": 20.0, "name_en": "Khelvachauri - 20", "name_ka": "ხელვაჩაური - 20" }, "geometry": { "type": "Point", "coordinates": [ 41.680705268231286, 41.624303123960978 ] } },
{ "type": "Feature", "properties": { "id": 83021, "district_en": "Khelvachauri", "district_ka": "ხელვაჩაური", "precinct": 21.0, "name_en": "Khelvachauri - 21", "name_ka": "ხელვაჩაური - 21" }, "geometry": { "type": "Point", "coordinates": [ 41.665735169800527, 41.633754134352749 ] } },
{ "type": "Feature", "properties": { "id": 83022, "district_en": "Khelvachauri", "district_ka": "ხელვაჩაური", "precinct": 22.0, "name_en": "Khelvachauri - 22", "name_ka": "ხელვაჩაური - 22" }, "geometry": { "type": "Point", "coordinates": [ 41.677730469471804, 41.636168533261767 ] } },
{ "type": "Feature", "properties": { "id": 83023, "district_en": "Khelvachauri", "district_ka": "ხელვაჩაური", "precinct": 23.0, "name_en": "Khelvachauri - 23", "name_ka": "ხელვაჩაური - 23" }, "geometry": { "type": "Point", "coordinates": [ 41.675228766987793, 41.63375054657552 ] } },
{ "type": "Feature", "properties": { "id": 83024, "district_en": "Khelvachauri", "district_ka": "ხელვაჩაური", "precinct": 24.0, "name_en": "Khelvachauri - 24", "name_ka": "ხელვაჩაური - 24" }, "geometry": { "type": "Point", "coordinates": [ 41.548835055929011, 41.522225156443454 ] } },
{ "type": "Feature", "properties": { "id": 83025, "district_en": "Khelvachauri", "district_ka": "ხელვაჩაური", "precinct": 25.0, "name_en": "Khelvachauri - 25", "name_ka": "ხელვაჩაური - 25" }, "geometry": { "type": "Point", "coordinates": [ 41.614900675137747, 41.566876133733466 ] } },
{ "type": "Feature", "properties": { "id": 83026, "district_en": "Khelvachauri", "district_ka": "ხელვაჩაური", "precinct": 26.0, "name_en": "Khelvachauri - 26", "name_ka": "ხელვაჩაური - 26" }, "geometry": { "type": "Point", "coordinates": [ 41.61491, 41.5671 ] } },
{ "type": "Feature", "properties": { "id": 83027, "district_en": "Khelvachauri", "district_ka": "ხელვაჩაური", "precinct": 27.0, "name_en": "Khelvachauri - 27", "name_ka": "ხელვაჩაური - 27" }, "geometry": { "type": "Point", "coordinates": [ 41.601100119237934, 41.578564963997735 ] } },
{ "type": "Feature", "properties": { "id": 83028, "district_en": "Khelvachauri", "district_ka": "ხელვაჩაური", "precinct": 28.0, "name_en": "Khelvachauri - 28", "name_ka": "ხელვაჩაური - 28" }, "geometry": { "type": "Point", "coordinates": [ 41.595171689987183, 41.585227852727002 ] } },
{ "type": "Feature", "properties": { "id": 83029, "district_en": "Khelvachauri", "district_ka": "ხელვაჩაური", "precinct": 29.0, "name_en": "Khelvachauri - 29", "name_ka": "ხელვაჩაური - 29" }, "geometry": { "type": "Point", "coordinates": [ 41.671302401324112, 41.560053222252165 ] } },
{ "type": "Feature", "properties": { "id": 83030, "district_en": "Khelvachauri", "district_ka": "ხელვაჩაური", "precinct": 30.0, "name_en": "Khelvachauri - 30", "name_ka": "ხელვაჩაური - 30" }, "geometry": { "type": "Point", "coordinates": [ 41.651085374311698, 41.563535992831355 ] } },
{ "type": "Feature", "properties": { "id": 83031, "district_en": "Khelvachauri", "district_ka": "ხელვაჩაური", "precinct": 31.0, "name_en": "Khelvachauri - 31", "name_ka": "ხელვაჩაური - 31" }, "geometry": { "type": "Point", "coordinates": [ 41.641660370582954, 41.550149356750161 ] } },
{ "type": "Feature", "properties": { "id": 83032, "district_en": "Khelvachauri", "district_ka": "ხელვაჩაური", "precinct": 32.0, "name_en": "Khelvachauri - 32", "name_ka": "ხელვაჩაური - 32" }, "geometry": { "type": "Point", "coordinates": [ 41.670735141523743, 41.552646840664309 ] } },
{ "type": "Feature", "properties": { "id": 83033, "district_en": "Khelvachauri", "district_ka": "ხელვაჩაური", "precinct": 33.0, "name_en": "Khelvachauri - 33", "name_ka": "ხელვაჩაური - 33" }, "geometry": { "type": "Point", "coordinates": [ 41.634119811783101, 41.570668230038102 ] } },
{ "type": "Feature", "properties": { "id": 83034, "district_en": "Khelvachauri", "district_ka": "ხელვაჩაური", "precinct": 34.0, "name_en": "Khelvachauri - 34", "name_ka": "ხელვაჩაური - 34" }, "geometry": { "type": "Point", "coordinates": [ 41.729886051487412, 41.545102023732014 ] } },
{ "type": "Feature", "properties": { "id": 83035, "district_en": "Khelvachauri", "district_ka": "ხელვაჩაური", "precinct": 35.0, "name_en": "Khelvachauri - 35", "name_ka": "ხელვაჩაური - 35" }, "geometry": { "type": "Point", "coordinates": [ 41.754593858718039, 41.512701923393323 ] } },
{ "type": "Feature", "properties": { "id": 83036, "district_en": "Khelvachauri", "district_ka": "ხელვაჩაური", "precinct": 36.0, "name_en": "Khelvachauri - 36", "name_ka": "ხელვაჩაური - 36" }, "geometry": { "type": "Point", "coordinates": [ 41.7908007, 41.5198005 ] } },
{ "type": "Feature", "properties": { "id": 83037, "district_en": "Khelvachauri", "district_ka": "ხელვაჩაური", "precinct": 37.0, "name_en": "Khelvachauri - 37", "name_ka": "ხელვაჩაური - 37" }, "geometry": { "type": "Point", "coordinates": [ 41.841590995832441, 41.501292878237564 ] } },
{ "type": "Feature", "properties": { "id": 83038, "district_en": "Khelvachauri", "district_ka": "ხელვაჩაური", "precinct": 38.0, "name_en": "Khelvachauri - 38", "name_ka": "ხელვაჩაური - 38" }, "geometry": { "type": "Point", "coordinates": [ 41.847814745267421, 41.503601545516631 ] } },
{ "type": "Feature", "properties": { "id": 83039, "district_en": "Khelvachauri", "district_ka": "ხელვაჩაური", "precinct": 39.0, "name_en": "Khelvachauri - 39", "name_ka": "ხელვაჩაური - 39" }, "geometry": { "type": "Point", "coordinates": [ 41.859534134344237, 41.48642705991751 ] } },
{ "type": "Feature", "properties": { "id": 83040, "district_en": "Khelvachauri", "district_ka": "ხელვაჩაური", "precinct": 40.0, "name_en": "Khelvachauri - 40", "name_ka": "ხელვაჩაური - 40" }, "geometry": { "type": "Point", "coordinates": [ 41.719009266698457, 41.48854581372607 ] } },
{ "type": "Feature", "properties": { "id": 83041, "district_en": "Khelvachauri", "district_ka": "ხელვაჩაური", "precinct": 41.0, "name_en": "Khelvachauri - 41", "name_ka": "ხელვაჩაური - 41" }, "geometry": { "type": "Point", "coordinates": [ 41.711960434913635, 41.502346352377295 ] } },
{ "type": "Feature", "properties": { "id": 84001, "district_en": "Khulo", "district_ka": "ხულო", "precinct": 1.0, "name_en": "Khulo - 1", "name_ka": "ხულო - 1" }, "geometry": { "type": "Point", "coordinates": [ 42.314231693744659, 41.644157422492086 ] } },
{ "type": "Feature", "properties": { "id": 84002, "district_en": "Khulo", "district_ka": "ხულო", "precinct": 2.0, "name_en": "Khulo - 2", "name_ka": "ხულო - 2" }, "geometry": { "type": "Point", "coordinates": [ 42.386777852445555, 41.696195027627489 ] } },
{ "type": "Feature", "properties": { "id": 84003, "district_en": "Khulo", "district_ka": "ხულო", "precinct": 3.0, "name_en": "Khulo - 3", "name_ka": "ხულო - 3" }, "geometry": { "type": "Point", "coordinates": [ 42.337729481614694, 41.659411447220251 ] } },
{ "type": "Feature", "properties": { "id": 84004, "district_en": "Khulo", "district_ka": "ხულო", "precinct": 4.0, "name_en": "Khulo - 4", "name_ka": "ხულო - 4" }, "geometry": { "type": "Point", "coordinates": [ 42.324995888291127, 41.659128953955566 ] } },
{ "type": "Feature", "properties": { "id": 84005, "district_en": "Khulo", "district_ka": "ხულო", "precinct": 5.0, "name_en": "Khulo - 5", "name_ka": "ხულო - 5" }, "geometry": { "type": "Point", "coordinates": [ 42.314282672560907, 41.679691036845945 ] } },
{ "type": "Feature", "properties": { "id": 84006, "district_en": "Khulo", "district_ka": "ხულო", "precinct": 6.0, "name_en": "Khulo - 6", "name_ka": "ხულო - 6" }, "geometry": { "type": "Point", "coordinates": [ 42.3083958031566, 41.673357704305133 ] } },
{ "type": "Feature", "properties": { "id": 84007, "district_en": "Khulo", "district_ka": "ხულო", "precinct": 7.0, "name_en": "Khulo - 7", "name_ka": "ხულო - 7" }, "geometry": { "type": "Point", "coordinates": [ 42.29937632110137, 41.652322238646562 ] } },
{ "type": "Feature", "properties": { "id": 84008, "district_en": "Khulo", "district_ka": "ხულო", "precinct": 8.0, "name_en": "Khulo - 8", "name_ka": "ხულო - 8" }, "geometry": { "type": "Point", "coordinates": [ 42.306249940113062, 41.651130076502795 ] } },
{ "type": "Feature", "properties": { "id": 84009, "district_en": "Khulo", "district_ka": "ხულო", "precinct": 9.0, "name_en": "Khulo - 9", "name_ka": "ხულო - 9" }, "geometry": { "type": "Point", "coordinates": [ 42.318882038382625, 41.643009901197772 ] } },
{ "type": "Feature", "properties": { "id": 84010, "district_en": "Khulo", "district_ka": "ხულო", "precinct": 10.0, "name_en": "Khulo - 10", "name_ka": "ხულო - 10" }, "geometry": { "type": "Point", "coordinates": [ 42.364267549223172, 41.676212930119796 ] } },
{ "type": "Feature", "properties": { "id": 84011, "district_en": "Khulo", "district_ka": "ხულო", "precinct": 11.0, "name_en": "Khulo - 11", "name_ka": "ხულო - 11" }, "geometry": { "type": "Point", "coordinates": [ 42.353943744033003, 41.668980571353337 ] } },
{ "type": "Feature", "properties": { "id": 84012, "district_en": "Khulo", "district_ka": "ხულო", "precinct": 12.0, "name_en": "Khulo - 12", "name_ka": "ხულო - 12" }, "geometry": { "type": "Point", "coordinates": [ 42.389162222406746, 41.632321255125213 ] } },
{ "type": "Feature", "properties": { "id": 84013, "district_en": "Khulo", "district_ka": "ხულო", "precinct": 13.0, "name_en": "Khulo - 13", "name_ka": "ხულო - 13" }, "geometry": { "type": "Point", "coordinates": [ 42.408674283134729, 41.64108467611954 ] } },
{ "type": "Feature", "properties": { "id": 84014, "district_en": "Khulo", "district_ka": "ხულო", "precinct": 14.0, "name_en": "Khulo - 14", "name_ka": "ხულო - 14" }, "geometry": { "type": "Point", "coordinates": [ 42.370246946811676, 41.645907220502309 ] } },
{ "type": "Feature", "properties": { "id": 84015, "district_en": "Khulo", "district_ka": "ხულო", "precinct": 15.0, "name_en": "Khulo - 15", "name_ka": "ხულო - 15" }, "geometry": { "type": "Point", "coordinates": [ 42.386053953146089, 41.647274040500839 ] } },
{ "type": "Feature", "properties": { "id": 84016, "district_en": "Khulo", "district_ka": "ხულო", "precinct": 16.0, "name_en": "Khulo - 16", "name_ka": "ხულო - 16" }, "geometry": { "type": "Point", "coordinates": [ 42.363606095312889, 41.646203414267994 ] } },
{ "type": "Feature", "properties": { "id": 84017, "district_en": "Khulo", "district_ka": "ხულო", "precinct": 17.0, "name_en": "Khulo - 17", "name_ka": "ხულო - 17" }, "geometry": { "type": "Point", "coordinates": [ 42.295311391353607, 41.637259989544539 ] } },
{ "type": "Feature", "properties": { "id": 84018, "district_en": "Khulo", "district_ka": "ხულო", "precinct": 18.0, "name_en": "Khulo - 18", "name_ka": "ხულო - 18" }, "geometry": { "type": "Point", "coordinates": [ 42.280395465623535, 41.644889341167236 ] } },
{ "type": "Feature", "properties": { "id": 84019, "district_en": "Khulo", "district_ka": "ხულო", "precinct": 19.0, "name_en": "Khulo - 19", "name_ka": "ხულო - 19" }, "geometry": { "type": "Point", "coordinates": [ 42.290642732378551, 41.620115432716474 ] } },
{ "type": "Feature", "properties": { "id": 84020, "district_en": "Khulo", "district_ka": "ხულო", "precinct": 20.0, "name_en": "Khulo - 20", "name_ka": "ხულო - 20" }, "geometry": { "type": "Point", "coordinates": [ 42.315867259524552, 41.622930655420937 ] } },
{ "type": "Feature", "properties": { "id": 84021, "district_en": "Khulo", "district_ka": "ხულო", "precinct": 21.0, "name_en": "Khulo - 21", "name_ka": "ხულო - 21" }, "geometry": { "type": "Point", "coordinates": [ 42.527859443169419, 41.541417376560595 ] } },
{ "type": "Feature", "properties": { "id": 84022, "district_en": "Khulo", "district_ka": "ხულო", "precinct": 22.0, "name_en": "Khulo - 22", "name_ka": "ხულო - 22" }, "geometry": { "type": "Point", "coordinates": [ 42.518590511561577, 41.549142938720692 ] } },
{ "type": "Feature", "properties": { "id": 84023, "district_en": "Khulo", "district_ka": "ხულო", "precinct": 23.0, "name_en": "Khulo - 23", "name_ka": "ხულო - 23" }, "geometry": { "type": "Point", "coordinates": [ 42.465116977690514, 41.644074797536028 ] } },
{ "type": "Feature", "properties": { "id": 84024, "district_en": "Khulo", "district_ka": "ხულო", "precinct": 24.0, "name_en": "Khulo - 24", "name_ka": "ხულო - 24" }, "geometry": { "type": "Point", "coordinates": [ 42.441709874560516, 41.642189503533295 ] } },
{ "type": "Feature", "properties": { "id": 84025, "district_en": "Khulo", "district_ka": "ხულო", "precinct": 25.0, "name_en": "Khulo - 25", "name_ka": "ხულო - 25" }, "geometry": { "type": "Point", "coordinates": [ 42.420225628836057, 41.632690902196629 ] } },
{ "type": "Feature", "properties": { "id": 84026, "district_en": "Khulo", "district_ka": "ხულო", "precinct": 26.0, "name_en": "Khulo - 26", "name_ka": "ხულო - 26" }, "geometry": { "type": "Point", "coordinates": [ 42.395817041394821, 41.685990340796124 ] } },
{ "type": "Feature", "properties": { "id": 84027, "district_en": "Khulo", "district_ka": "ხულო", "precinct": 27.0, "name_en": "Khulo - 27", "name_ka": "ხულო - 27" }, "geometry": { "type": "Point", "coordinates": [ 42.410607935412585, 41.674924269528177 ] } },
{ "type": "Feature", "properties": { "id": 84028, "district_en": "Khulo", "district_ka": "ხულო", "precinct": 28.0, "name_en": "Khulo - 28", "name_ka": "ხულო - 28" }, "geometry": { "type": "Point", "coordinates": [ 42.329288894832423, 41.583730094595069 ] } },
{ "type": "Feature", "properties": { "id": 84029, "district_en": "Khulo", "district_ka": "ხულო", "precinct": 29.0, "name_en": "Khulo - 29", "name_ka": "ხულო - 29" }, "geometry": { "type": "Point", "coordinates": [ 42.298731122020726, 41.604601584217825 ] } },
{ "type": "Feature", "properties": { "id": 84030, "district_en": "Khulo", "district_ka": "ხულო", "precinct": 30.0, "name_en": "Khulo - 30", "name_ka": "ხულო - 30" }, "geometry": { "type": "Point", "coordinates": [ 42.336315810684937, 41.601730608609806 ] } },
{ "type": "Feature", "properties": { "id": 84031, "district_en": "Khulo", "district_ka": "ხულო", "precinct": 31.0, "name_en": "Khulo - 31", "name_ka": "ხულო - 31" }, "geometry": { "type": "Point", "coordinates": [ 42.346699768095064, 41.583735840604469 ] } },
{ "type": "Feature", "properties": { "id": 84032, "district_en": "Khulo", "district_ka": "ხულო", "precinct": 32.0, "name_en": "Khulo - 32", "name_ka": "ხულო - 32" }, "geometry": { "type": "Point", "coordinates": [ 42.400819063185509, 41.576122584734819 ] } },
{ "type": "Feature", "properties": { "id": 84033, "district_en": "Khulo", "district_ka": "ხულო", "precinct": 33.0, "name_en": "Khulo - 33", "name_ka": "ხულო - 33" }, "geometry": { "type": "Point", "coordinates": [ 42.442132830619812, 41.560505613399357 ] } },
{ "type": "Feature", "properties": { "id": 84034, "district_en": "Khulo", "district_ka": "ხულო", "precinct": 34.0, "name_en": "Khulo - 34", "name_ka": "ხულო - 34" }, "geometry": { "type": "Point", "coordinates": [ 42.475743889807518, 41.569532926486609 ] } },
{ "type": "Feature", "properties": { "id": 84035, "district_en": "Khulo", "district_ka": "ხულო", "precinct": 35.0, "name_en": "Khulo - 35", "name_ka": "ხულო - 35" }, "geometry": { "type": "Point", "coordinates": [ 42.432994270639021, 41.558678537068289 ] } },
{ "type": "Feature", "properties": { "id": 84036, "district_en": "Khulo", "district_ka": "ხულო", "precinct": 36.0, "name_en": "Khulo - 36", "name_ka": "ხულო - 36" }, "geometry": { "type": "Point", "coordinates": [ 42.380992543919312, 41.708689354307992 ] } },
{ "type": "Feature", "properties": { "id": 84037, "district_en": "Khulo", "district_ka": "ხულო", "precinct": 37.0, "name_en": "Khulo - 37", "name_ka": "ხულო - 37" }, "geometry": { "type": "Point", "coordinates": [ 42.390371378350359, 41.700281333982403 ] } },
{ "type": "Feature", "properties": { "id": 84038, "district_en": "Khulo", "district_ka": "ხულო", "precinct": 38.0, "name_en": "Khulo - 38", "name_ka": "ხულო - 38" }, "geometry": { "type": "Point", "coordinates": [ 42.370337806823727, 41.712091787509053 ] } },
{ "type": "Feature", "properties": { "id": 84039, "district_en": "Khulo", "district_ka": "ხულო", "precinct": 39.0, "name_en": "Khulo - 39", "name_ka": "ხულო - 39" }, "geometry": { "type": "Point", "coordinates": [ 42.359774149570853, 41.703898992180719 ] } },
{ "type": "Feature", "properties": { "id": 84040, "district_en": "Khulo", "district_ka": "ხულო", "precinct": 40.0, "name_en": "Khulo - 40", "name_ka": "ხულო - 40" }, "geometry": { "type": "Point", "coordinates": [ 42.366261675888325, 41.711594623845258 ] } },
{ "type": "Feature", "properties": { "id": 84041, "district_en": "Khulo", "district_ka": "ხულო", "precinct": 41.0, "name_en": "Khulo - 41", "name_ka": "ხულო - 41" }, "geometry": { "type": "Point", "coordinates": [ 42.476052045822144, 41.549708174385671 ] } },
{ "type": "Feature", "properties": { "id": 84042, "district_en": "Khulo", "district_ka": "ხულო", "precinct": 42.0, "name_en": "Khulo - 42", "name_ka": "ხულო - 42" }, "geometry": { "type": "Point", "coordinates": [ 42.470288909331551, 41.529538221321587 ] } },
{ "type": "Feature", "properties": { "id": 84043, "district_en": "Khulo", "district_ka": "ხულო", "precinct": 43.0, "name_en": "Khulo - 43", "name_ka": "ხულო - 43" }, "geometry": { "type": "Point", "coordinates": [ 42.48913822831117, 41.548636541616823 ] } },
{ "type": "Feature", "properties": { "id": 84044, "district_en": "Khulo", "district_ka": "ხულო", "precinct": 44.0, "name_en": "Khulo - 44", "name_ka": "ხულო - 44" }, "geometry": { "type": "Point", "coordinates": [ 42.363506555557251, 41.586959188606379 ] } },
{ "type": "Feature", "properties": { "id": 84045, "district_en": "Khulo", "district_ka": "ხულო", "precinct": 45.0, "name_en": "Khulo - 45", "name_ka": "ხულო - 45" }, "geometry": { "type": "Point", "coordinates": [ 42.364067137241364, 41.657394977392784 ] } },
{ "type": "Feature", "properties": { "id": 84046, "district_en": "Khulo", "district_ka": "ხულო", "precinct": 46.0, "name_en": "Khulo - 46", "name_ka": "ხულო - 46" }, "geometry": { "type": "Point", "coordinates": [ 42.329040169715881, 41.643946962485316 ] } },
{ "type": "Feature", "properties": { "id": 84047, "district_en": "Khulo", "district_ka": "ხულო", "precinct": 47.0, "name_en": "Khulo - 47", "name_ka": "ხულო - 47" }, "geometry": { "type": "Point", "coordinates": [ 42.514945724992337, 41.54199843779412 ] } },
{ "type": "Feature", "properties": { "id": 84048, "district_en": "Khulo", "district_ka": "ხულო", "precinct": 48.0, "name_en": "Khulo - 48", "name_ka": "ხულო - 48" }, "geometry": { "type": "Point", "coordinates": [ 42.370104789733887, 41.72068716272608 ] } },
{ "type": "Feature", "properties": { "id": 84049, "district_en": "Khulo", "district_ka": "ხულო", "precinct": 49.0, "name_en": "Khulo - 49", "name_ka": "ხულო - 49" }, "geometry": { "type": "Point", "coordinates": [ 42.348835025339447, 41.717008469018822 ] } },
{ "type": "Feature", "properties": { "id": 84050, "district_en": "Khulo", "district_ka": "ხულო", "precinct": 50.0, "name_en": "Khulo - 50", "name_ka": "ხულო - 50" }, "geometry": { "type": "Point", "coordinates": [ 42.435116082237442, 41.651033767086808 ] } },
{ "type": "Feature", "properties": { "id": 84051, "district_en": "Khulo", "district_ka": "ხულო", "precinct": 51.0, "name_en": "Khulo - 51", "name_ka": "ხულო - 51" }, "geometry": { "type": "Point", "coordinates": [ 42.411317229269798, 41.63074028021726 ] } },
{ "type": "Feature", "properties": { "id": 84052, "district_en": "Khulo", "district_ka": "ხულო", "precinct": 52.0, "name_en": "Khulo - 52", "name_ka": "ხულო - 52" }, "geometry": { "type": "Point", "coordinates": [ 42.386536381753551, 41.627799025986924 ] } },
{ "type": "Feature", "properties": { "id": 84053, "district_en": "Khulo", "district_ka": "ხულო", "precinct": 53.0, "name_en": "Khulo - 53", "name_ka": "ხულო - 53" }, "geometry": { "type": "Point", "coordinates": [ 42.313558757293777, 41.591771331844058 ] } }
]
}
